{"type":"FeatureCollection", "features": [
{"type":"Feature","geometry":{"type":"Polygon","coordinates":[[[-6.4045,6.2971],[-6.4374,6.2928],[-6.4767,6.2711],[-6.5074,6.261],[-6.5899,6.3199],[-6.6141,6.2995],[-6.6795,6.296],[-6.7111,6.2915],[-6.7667,6.2794],[-6.8087,6.2742],[-6.8595,6.2761],[-6.8682,6.2808],[-6.8958,6.3242],[-6.9342,6.3752],[-6.9788,6.4219],[-6.9871,6.4473],[-7.0002,6.4461],[-6.9999,6.4642],[-6.982,6.4594],[-6.9634,6.4702],[-6.952,6.4879],[-6.9801,6.5513],[-7,6.5563],[-7.1299,6.4582],[-7.1498,6.4628],[-7.1572,6.4468],[-7.1563,6.4318],[-7.1276,6.4043],[-7.1558,6.3941],[-7.1617,6.3755],[-7.1704,6.3738],[-7.1835,6.3183],[-7.1735,6.301],[-7.1702,6.2648],[-7.2042,6.2295],[-7.2079,6.2054],[-7.1812,6.182],[-7.1644,6.1789],[-7.1539,6.1842],[-7.1227,6.1702],[-7.1191,6.1577],[-7.1079,6.1525],[-7.0842,6.0572],[-7.0908,5.8883],[-7.0878,5.6663],[-7.2554,5.6453],[-7.2732,5.62],[-7.3044,5.6278],[-7.3201,5.6179],[-7.3445,5.6276],[-7.3816,5.6208],[-7.3845,5.5916],[-7.4003,5.581],[-7.398,5.5579],[-7.4024,5.5276],[-7.4099,5.521],[-7.4087,5.5026],[-7.414,5.4856],[-7.429,5.4736],[-7.4285,5.4563],[-7.4213,5.4441],[-7.4255,5.4289],[-7.4443,5.4468],[-7.455,5.4269],[-7.435,5.4061],[-7.4324,5.3873],[-7.4059,5.3644],[-7.3883,5.3682],[-7.3899,5.3454],[-7.3825,5.3199],[-7.3968,5.3159],[-7.4018,5.3061],[-7.3956,5.2931],[-7.4229,5.2825],[-7.4155,5.302],[-7.4309,5.3012],[-7.4657,5.2811],[-7.479,5.281],[-7.4818,5.2619],[-7.4706,5.2576],[-7.4694,5.2399],[-7.4801,5.2377],[-7.4901,5.2163],[-7.4817,5.2081],[-7.4768,5.1652],[-7.4899,5.1431],[-7.4909,5.129],[-7.5038,5.1228],[-7.5116,5.1036],[-7.521,5.1165],[-7.5343,5.1139],[-7.544,5.1027],[-7.569,5.0848],[-7.5543,5.0445],[-7.5625,5.03],[-7.5573,5.0099],[-7.548,5.0063],[-7.5493,4.9912],[-7.5654,4.9737],[-7.5566,4.9601],[-7.5459,4.9623],[-7.5432,4.9443],[-7.533,4.9191],[-7.5546,4.9251],[-7.5679,4.9225],[-7.5707,4.9095],[-7.5844,4.9141],[-7.6009,4.9067],[-7.6072,4.8897],[-7.5942,4.8783],[-7.5972,4.8426],[-7.5881,4.8275],[-7.601,4.8137],[-7.5983,4.796],[-7.5839,4.7853],[-7.5695,4.7836],[-7.5726,4.7688],[-7.563,4.7364],[-7.5694,4.7219],[-7.5625,4.7025],[-7.5771,4.685],[-7.5684,4.6707],[-7.5798,4.6648],[-7.5823,4.6525],[-7.5689,4.6479],[-7.5543,4.6094],[-7.5628,4.5949],[-7.5804,4.5905],[-7.5695,4.5718],[-7.5643,4.5477],[-7.5718,4.5318],[-7.5591,4.512],[-7.56,4.4893],[-7.5739,4.4683],[-7.5706,4.4495],[-7.5471,4.4345],[-7.5679,4.421],[-7.5775,4.4011],[-7.5734,4.3867],[-7.5563,4.3696],[-7.5386,4.3634],[-7.4883,4.3606],[-7.4632,4.3662],[-7.4405,4.3754],[-7.4166,4.3803],[-7.397,4.3961],[-7.3676,4.4061],[-7.3536,4.4204],[-7.3269,4.4296],[-7.3113,4.4502],[-7.2953,4.457],[-7.2568,4.4631],[-7.2491,4.4848],[-7.1911,4.519],[-7.1637,4.525],[-7.1397,4.5252],[-7.0738,4.5338],[-7.0353,4.5443],[-7.0295,4.5628],[-7.0084,4.5763],[-7.0041,4.5874],[-6.9853,4.5934],[-6.9654,4.6191],[-6.9211,4.6418],[-6.9243,4.6552],[-6.9165,4.6635],[-6.8682,4.674],[-6.7792,4.6863],[-6.7665,4.6915],[-6.7303,4.6905],[-6.713,4.6941],[-6.7076,4.7068],[-6.651,4.7181],[-6.6271,4.7297],[-6.6079,4.744],[-6.6056,4.7526],[-6.5616,4.7722],[-6.5121,4.776],[-6.4524,4.7901],[-6.4493,4.8007],[-6.432,4.8099],[-6.412,4.8127],[-6.3947,4.8223],[-6.3617,4.826],[-6.3165,4.8459],[-6.3059,4.8468],[-6.2407,4.866],[-6.225,4.8783],[-6.2093,4.8803],[-6.1818,4.897],[-6.1323,4.9181],[-6.1221,4.9202],[-6.0848,4.9397],[-6.0715,4.9582],[-6.031,4.9628],[-6.005,4.9755],[-5.9791,4.9839],[-5.9681,4.9958],[-5.9284,5.0074],[-5.9064,5.0185],[-5.8635,5.0312],[-5.8073,5.0442],[-5.7443,5.0539],[-5.6467,5.0646],[-5.6066,5.0758],[-5.5515,5.0768],[-5.5082,5.0809],[-5.4859,5.0901],[-5.5068,5.1142],[-5.4982,5.1728],[-5.4943,5.1805],[-5.4751,5.1827],[-5.4618,5.1967],[-5.4567,5.2338],[-5.4632,5.2551],[-5.4588,5.2617],[-5.4327,5.2661],[-5.4551,5.2845],[-5.4558,5.2988],[-5.4388,5.3259],[-5.4254,5.3546],[-5.3981,5.3698],[-5.3835,5.3847],[-5.3811,5.3981],[-5.4083,5.3997],[-5.419,5.4109],[-5.4231,5.4309],[-5.4422,5.4391],[-5.4611,5.4312],[-5.476,5.437],[-5.4755,5.4473],[-5.4896,5.4889],[-5.5104,5.4916],[-5.5231,5.5059],[-5.5601,5.5213],[-5.5686,5.5442],[-5.5729,5.5757],[-5.5997,5.5669],[-5.6182,5.5453],[-5.6564,5.5641],[-5.7429,5.6228],[-5.7536,5.6095],[-5.7503,5.596],[-5.7706,5.5754],[-5.773,5.5543],[-5.7891,5.5384],[-5.8215,5.5287],[-5.8612,5.5418],[-5.8732,5.536],[-5.9135,5.5419],[-5.9392,5.5279],[-5.9532,5.5306],[-5.9786,5.5225],[-5.9965,5.5302],[-6.0226,5.5739],[-6.027,5.6055],[-6.017,5.6398],[-6.0504,5.6727],[-6.0614,5.7035],[-6.0764,5.7194],[-6.0676,5.7362],[-6.0906,5.7497],[-6.1059,5.754],[-6.1035,5.7671],[-6.1166,5.772],[-6.1889,5.7699],[-6.2214,5.71],[-6.2316,5.7274],[-6.2203,5.7552],[-6.2304,5.7714],[-6.2304,5.7878],[-6.2471,5.8058],[-6.2426,5.8229],[-6.2507,5.8465],[-6.2662,5.8529],[-6.2772,5.866],[-6.2787,5.8991],[-6.2911,5.9122],[-6.2901,5.9359],[-6.3556,6.0341],[-6.3805,6.0984],[-6.3997,6.133],[-6.4121,6.1642],[-6.4045,6.2971]]]},"properties":{"shapeName":"Bas-Sassandra","shapeISO":"","shapeID":"83157122B96959932745266","shapeGroup":"CIV","shapeType":"ADM1"}},
{"type":"Feature","geometry":{"type":"Polygon","coordinates":[[[-6.6648,10.3594],[-6.6846,10.3442],[-6.7224,10.3511],[-6.7389,10.3637],[-6.7772,10.3664],[-6.7912,10.3837],[-6.8068,10.3912],[-6.8257,10.389],[-6.8253,10.3715],[-6.8559,10.3497],[-6.8721,10.3458],[-6.8858,10.354],[-6.9005,10.3475],[-6.9123,10.3547],[-6.9364,10.3596],[-6.9464,10.3496],[-6.9709,10.3073],[-6.9831,10.3045],[-7.0175,10.2572],[-6.9826,10.2134],[-6.9937,10.1744],[-7.0108,10.1583],[-7.0319,10.1488],[-7.0512,10.147],[-7.0862,10.1707],[-7.073,10.1954],[-7.0796,10.2087],[-7.1076,10.2125],[-7.133,10.2411],[-7.1562,10.2497],[-7.261,10.2563],[-7.2736,10.2622],[-7.3069,10.2528],[-7.3371,10.2358],[-7.3799,10.2488],[-7.3585,10.2687],[-7.3552,10.2843],[-7.3574,10.3276],[-7.3666,10.3459],[-7.4011,10.3471],[-7.4158,10.3355],[-7.4373,10.3728],[-7.4469,10.4006],[-7.4432,10.4357],[-7.4967,10.4554],[-7.5112,10.4568],[-7.5356,10.4329],[-7.5376,10.4198],[-7.551,10.4136],[-7.5891,10.4274],[-7.6253,10.4596],[-7.6468,10.4361],[-7.6722,10.4169],[-7.687,10.3989],[-7.7091,10.3959],[-7.727,10.374],[-7.7148,10.3673],[-7.7103,10.3509],[-7.7238,10.3413],[-7.7394,10.3455],[-7.7483,10.3362],[-7.7433,10.3228],[-7.7537,10.3078],[-7.7465,10.2992],[-7.7605,10.284],[-7.7787,10.275],[-7.8059,10.2379],[-7.8228,10.224],[-7.8294,10.2099],[-7.8441,10.2047],[-7.8657,10.1699],[-7.909,10.1626],[-7.9305,10.1476],[-7.9553,10.1509],[-7.9715,10.1668],[-7.9816,10.1613],[-7.9914,10.142],[-8.0109,10.1309],[-8.0071,10.1162],[-8.0099,10.0895],[-8.0778,10.06],[-8.1079,10.0545],[-8.1133,10.0461],[-8.1122,10.023],[-8.1315,9.9865],[-8.1436,9.975],[-8.1344,9.9675],[-8.113,9.9753],[-8.1103,9.9569],[-8.1272,9.9526],[-8.149,9.9384],[-8.159,9.9232],[-8.148,9.9068],[-8.1314,9.9135],[-8.1193,9.8986],[-8.1294,9.862],[-8.0974,9.8671],[-8.0927,9.8605],[-8.0956,9.8331],[-8.0915,9.8069],[-8.1099,9.7841],[-8.1057,9.7683],[-8.1158,9.7416],[-8.1086,9.7113],[-8.1243,9.6864],[-8.1143,9.6509],[-8.1351,9.6154],[-8.142,9.5843],[-8.1328,9.5714],[-8.1387,9.5593],[-8.1343,9.5289],[-8.1184,9.4954],[-8.0853,9.442],[-8.0288,9.3916],[-8.0168,9.3887],[-7.9989,9.3953],[-7.9854,9.3923],[-7.9628,9.3955],[-7.9026,9.4174],[-7.8515,9.4168],[-7.8482,9.4131],[-7.8562,9.3755],[-7.8761,9.3376],[-7.8723,9.3177],[-7.8733,9.2924],[-7.9126,9.2178],[-7.911,9.1997],[-7.903,9.1833],[-7.8727,9.1587],[-7.8652,9.1578],[-7.844,9.1736],[-7.8362,9.1857],[-7.8148,9.1714],[-7.7983,9.1473],[-7.7985,9.1319],[-7.7653,9.0964],[-7.7346,9.0845],[-7.7192,9.07],[-7.694,9.0542],[-7.686,9.0413],[-7.6863,9.0242],[-7.6802,9.0058],[-7.6812,8.9802],[-7.6749,8.9668],[-7.6119,8.9529],[-7.5826,8.9301],[-7.5704,8.9282],[-7.5695,8.9152],[-7.5454,8.8818],[-7.5478,8.8688],[-7.5333,8.8436],[-7.5098,8.8377],[-7.469,8.8029],[-7.4517,8.7798],[-7.4271,8.7635],[-7.4012,8.7577],[-7.373,8.7152],[-7.3648,8.7088],[-7.3654,8.6835],[-7.3215,8.6748],[-7.3082,8.6816],[-7.28,8.6706],[-7.2409,8.6291],[-7.2356,8.5937],[-7.2182,8.5686],[-7.223,8.5518],[-7.1987,8.515],[-7.1776,8.526],[-7.1801,8.5426],[-7.1999,8.5598],[-7.2068,8.5732],[-7.1981,8.5836],[-7.2031,8.6141],[-7.2133,8.6301],[-7.209,8.6423],[-7.2159,8.6542],[-7.2089,8.6688],[-7.2074,8.6888],[-7.1997,8.7067],[-7.204,8.7335],[-7.1936,8.7372],[-7.2028,8.7564],[-7.1899,8.7728],[-7.2023,8.7899],[-7.1931,8.8025],[-7.2009,8.821],[-7.1979,8.8461],[-7.2086,8.8443],[-7.209,8.8671],[-7.2176,8.8936],[-7.2115,8.9186],[-7.2253,8.9277],[-7.2281,8.9432],[-7.2209,8.9567],[-7.1804,8.9528],[-7.1699,8.9925],[-7.1466,8.9987],[-7.1124,9.045],[-7.1002,9.0444],[-7.0712,9.0293],[-7.0531,9.0049],[-7.0394,8.9808],[-7.0184,8.968],[-6.9858,8.9734],[-6.9616,8.9648],[-6.9451,8.9742],[-6.923,8.9552],[-6.918,8.9447],[-6.9021,8.9388],[-6.9068,8.9799],[-6.9033,9.0255],[-6.8989,9.0481],[-6.8884,9.0677],[-6.8714,9.0765],[-6.849,9.0762],[-6.8343,9.0705],[-6.8159,9.0872],[-6.7871,9.1036],[-6.7723,9.1055],[-6.7567,9.1173],[-6.756,9.1273],[-6.7403,9.1467],[-6.7597,9.1656],[-6.7472,9.2034],[-6.7456,9.2494],[-6.7369,9.2683],[-6.7613,9.2862],[-6.7816,9.2818],[-6.7864,9.2946],[-6.7859,9.3296],[-6.7801,9.3495],[-6.7902,9.3535],[-6.7999,9.3742],[-6.7997,9.3945],[-6.7936,9.4065],[-6.7815,9.4071],[-6.7671,9.4224],[-6.7996,9.4353],[-6.7827,9.4555],[-6.7655,9.4677],[-6.7666,9.4797],[-6.7568,9.4956],[-6.7457,9.5015],[-6.7436,9.5268],[-6.7582,9.5358],[-6.7771,9.5611],[-6.7861,9.5601],[-6.7992,9.576],[-6.7909,9.5831],[-6.7959,9.6073],[-6.7847,9.6366],[-6.7629,9.6674],[-6.7637,9.6866],[-6.7469,9.6936],[-6.7615,9.7078],[-6.7421,9.7493],[-6.7443,9.7551],[-6.7769,9.7694],[-6.7692,9.7866],[-6.7563,9.794],[-6.7603,9.8301],[-6.7419,9.8394],[-6.7418,9.8547],[-6.7541,9.8712],[-6.7525,9.8846],[-6.7628,9.9028],[-6.7826,9.9256],[-6.7917,9.9537],[-6.8322,9.9534],[-6.8882,9.9617],[-6.9318,9.9588],[-6.9678,9.9678],[-6.9594,9.9914],[-6.9472,9.9975],[-6.9291,10.0218],[-6.9325,10.0434],[-6.9293,10.0597],[-6.914,10.0705],[-6.8972,10.1033],[-6.8843,10.1054],[-6.8549,10.129],[-6.8352,10.1291],[-6.8267,10.136],[-6.7865,10.132],[-6.7594,10.101],[-6.7457,10.0968],[-6.7061,10.1017],[-6.675,10.122],[-6.6144,10.1439],[-6.5909,10.1573],[-6.5862,10.165],[-6.5959,10.186],[-6.5928,10.2311],[-6.6059,10.2402],[-6.6228,10.2373],[-6.6367,10.2541],[-6.6305,10.2899],[-6.6341,10.3088],[-6.6535,10.3345],[-6.6527,10.3444],[-6.6648,10.3594]]]},"properties":{"shapeName":"Denguele","shapeISO":"","shapeID":"83157122B12160353323799","shapeGroup":"CIV","shapeType":"ADM1"}},
{"type":"Feature","geometry":{"type":"Polygon","coordinates":[[[-3.7163,5.2974],[-3.7458,5.3128],[-3.7464,5.3296],[-3.7683,5.3386],[-3.7607,5.352],[-3.7647,5.3683],[-3.7792,5.3744],[-3.787,5.3679],[-3.8076,5.3813],[-3.8298,5.3741],[-3.8276,5.4003],[-3.8162,5.426],[-3.8259,5.4305],[-3.835,5.4491],[-3.8296,5.4646],[-3.8471,5.5016],[-3.8564,5.5085],[-3.8737,5.5003],[-3.8792,5.5201],[-3.8982,5.5458],[-3.927,5.5702],[-3.9401,5.5891],[-3.99,5.584],[-4.0323,5.5825],[-4.0382,5.5879],[-4.0715,5.5745],[-4.1025,5.576],[-4.1319,5.5858],[-4.1459,5.5986],[-4.1584,5.5962],[-4.1793,5.6051],[-4.1929,5.5962],[-4.206,5.6],[-4.2452,5.6002],[-4.2618,5.5941],[-4.3616,5.5807],[-4.3931,5.6018],[-4.4611,5.5336],[-4.4152,5.5234],[-4.3873,5.5265],[-4.365,5.5119],[-4.3016,5.4843],[-4.2991,5.4545],[-4.2849,5.4477],[-4.2911,5.4239],[-4.3074,5.4214],[-4.3168,5.408],[-4.3063,5.3928],[-4.2959,5.3085],[-4.2736,5.275],[-4.2259,5.2795],[-4.2141,5.2188],[-4.1163,5.2317],[-4.0035,5.2497],[-3.972,5.2478],[-3.9483,5.2411],[-3.8702,5.2278],[-3.8514,5.2215],[-3.84,5.2535],[-3.818,5.2505],[-3.8173,5.2717],[-3.8049,5.2853],[-3.7851,5.2715],[-3.7163,5.2974]]]},"properties":{"shapeName":"District Autonome D'Abidjan","shapeISO":"","shapeID":"83157122B76853064397847","shapeGroup":"CIV","shapeType":"ADM1"}},
{"type":"Feature","geometry":{"type":"Polygon","coordinates":[[[-5.3043,6.5512],[-5.2898,6.5619],[-5.2816,6.5757],[-5.2857,6.6042],[-5.2707,6.6389],[-5.2239,6.6564],[-5.2,6.6773],[-5.1358,6.7459],[-5.1107,6.7647],[-5.0799,6.7678],[-5.0471,6.7854],[-5.0379,6.7684],[-4.9756,6.7513],[-4.9588,6.7863],[-4.9619,6.7971],[-4.9544,6.8206],[-4.9747,6.8249],[-4.9886,6.8594],[-4.9909,6.8899],[-5.005,6.893],[-5.0261,6.9113],[-5.0336,6.9392],[-5.0569,6.9772],[-5.0929,6.9811],[-5.1025,6.9936],[-5.1185,6.9977],[-5.1286,7.0217],[-5.1405,7.0317],[-5.1809,7.0297],[-5.1901,7.0366],[-5.2151,7.0391],[-5.2309,7.0563],[-5.2713,7.0587],[-5.2851,7.0695],[-5.3145,7.0794],[-5.3386,7.0719],[-5.3603,7.0722],[-5.38,7.0672],[-5.4016,7.0527],[-5.4518,7.0395],[-5.4601,7.0307],[-5.4727,7.0341],[-5.4841,7.0273],[-5.4874,7.0112],[-5.5013,6.9875],[-5.5054,6.9303],[-5.5299,6.9125],[-5.5259,6.8863],[-5.514,6.8637],[-5.4905,6.8518],[-5.4879,6.8094],[-5.4711,6.8022],[-5.4428,6.7768],[-5.4362,6.758],[-5.4229,6.739],[-5.4057,6.7042],[-5.4066,6.6858],[-5.3997,6.6676],[-5.4123,6.6483],[-5.4151,6.6127],[-5.3963,6.5975],[-5.3556,6.6018],[-5.3345,6.5991],[-5.306,6.5878],[-5.2996,6.5724],[-5.3075,6.5666],[-5.3043,6.5512]]]},"properties":{"shapeName":"District Autonome De Yamoussoukro","shapeISO":"","shapeID":"83157122B30232425959699","shapeGroup":"CIV","shapeType":"ADM1"}},
{"type":"Feature","geometry":{"type":"Polygon","coordinates":[[[-5.4327,5.2661],[-5.4222,5.271],[-5.3982,5.2573],[-5.4056,5.2213],[-5.37,5.2173],[-5.3079,5.1596],[-5.2828,5.1764],[-5.2329,5.1779],[-5.1928,5.2077],[-5.1883,5.2328],[-5.1269,5.237],[-5.1282,5.213],[-5.1355,5.1934],[-5.1074,5.1731],[-5.0677,5.1927],[-5.0676,5.2345],[-5.0552,5.2379],[-5.0295,5.2724],[-5.0635,5.3097],[-5.0683,5.324],[-5.0561,5.3325],[-5.0622,5.3623],[-5.0549,5.3887],[-5.0461,5.3985],[-5.044,5.4225],[-5.0328,5.4368],[-5.0227,5.4625],[-5.0091,5.5091],[-5.021,5.5619],[-5.0347,5.573],[-5.023,5.5921],[-5.0151,5.5951],[-4.9945,5.6359],[-4.961,5.6464],[-4.9531,5.6663],[-4.9396,5.6804],[-4.9577,5.7002],[-4.9735,5.7338],[-4.9702,5.7518],[-4.9752,5.7623],[-4.9613,5.7807],[-4.9562,5.8081],[-4.9401,5.8296],[-4.9364,5.8563],[-4.9562,5.8649],[-4.9714,5.8784],[-4.9939,5.8902],[-4.9963,5.944],[-4.9987,5.9463],[-4.9987,6.001],[-5.018,6.0077],[-5.0373,6.0362],[-5.0032,6.0641],[-4.9913,6.0886],[-5.0183,6.1311],[-5.1426,6.155],[-5.2408,6.2421],[-5.2035,6.3708],[-5.211,6.3777],[-5.2466,6.3718],[-5.2702,6.3555],[-5.2964,6.3564],[-5.3182,6.4077],[-5.3109,6.431],[-5.319,6.451],[-5.3185,6.4655],[-5.3062,6.4758],[-5.2987,6.4979],[-5.3234,6.5102],[-5.3279,6.5297],[-5.3068,6.5422],[-5.3043,6.5512],[-5.3075,6.5666],[-5.2996,6.5724],[-5.306,6.5878],[-5.3345,6.5991],[-5.3556,6.6018],[-5.3963,6.5975],[-5.4151,6.6127],[-5.4123,6.6483],[-5.4329,6.6502],[-5.4881,6.6213],[-5.4865,6.6056],[-5.5086,6.5942],[-5.5138,6.6057],[-5.5321,6.5941],[-5.5406,6.6002],[-5.5668,6.5876],[-5.5824,6.5864],[-5.5739,6.566],[-5.5774,6.5587],[-5.6147,6.5508],[-5.6716,6.5258],[-5.6922,6.5374],[-5.6935,6.5505],[-5.7091,6.5586],[-5.7231,6.5505],[-5.7309,6.5231],[-5.7507,6.5007],[-5.9241,6.5251],[-6.0389,6.5269],[-6.0457,6.5094],[-6.0561,6.5031],[-6.2144,6.3358],[-6.3105,6.3444],[-6.3313,6.3206],[-6.3341,6.3111],[-6.369,6.3024],[-6.4045,6.2971],[-6.4121,6.1642],[-6.3997,6.133],[-6.3805,6.0984],[-6.3556,6.0341],[-6.2901,5.9359],[-6.2911,5.9122],[-6.2787,5.8991],[-6.2772,5.866],[-6.2662,5.8529],[-6.2507,5.8465],[-6.2426,5.8229],[-6.2471,5.8058],[-6.2304,5.7878],[-6.2304,5.7714],[-6.2203,5.7552],[-6.2316,5.7274],[-6.2214,5.71],[-6.1889,5.7699],[-6.1166,5.772],[-6.1035,5.7671],[-6.1059,5.754],[-6.0906,5.7497],[-6.0676,5.7362],[-6.0764,5.7194],[-6.0614,5.7035],[-6.0504,5.6727],[-6.017,5.6398],[-6.027,5.6055],[-6.0226,5.5739],[-5.9965,5.5302],[-5.9786,5.5225],[-5.9532,5.5306],[-5.9392,5.5279],[-5.9135,5.5419],[-5.8732,5.536],[-5.8612,5.5418],[-5.8215,5.5287],[-5.7891,5.5384],[-5.773,5.5543],[-5.7706,5.5754],[-5.7503,5.596],[-5.7536,5.6095],[-5.7429,5.6228],[-5.6564,5.5641],[-5.6182,5.5453],[-5.5997,5.5669],[-5.5729,5.5757],[-5.5686,5.5442],[-5.5601,5.5213],[-5.5231,5.5059],[-5.5104,5.4916],[-5.4896,5.4889],[-5.4755,5.4473],[-5.476,5.437],[-5.4611,5.4312],[-5.4422,5.4391],[-5.4231,5.4309],[-5.419,5.4109],[-5.4083,5.3997],[-5.3811,5.3981],[-5.3835,5.3847],[-5.3981,5.3698],[-5.4254,5.3546],[-5.4388,5.3259],[-5.4558,5.2988],[-5.4551,5.2845],[-5.4327,5.2661]]]},"properties":{"shapeName":"Goh-Djiboua","shapeISO":"","shapeID":"83157122B34711482467037","shapeGroup":"CIV","shapeType":"ADM1"}},
{"type":"Feature","geometry":{"type":"Polygon","coordinates":[[[-5.3043,6.5512],[-5.3068,6.5422],[-5.3279,6.5297],[-5.3234,6.5102],[-5.2987,6.4979],[-5.3062,6.4758],[-5.3185,6.4655],[-5.319,6.451],[-5.3109,6.431],[-5.3182,6.4077],[-5.2964,6.3564],[-5.2702,6.3555],[-5.2466,6.3718],[-5.211,6.3777],[-5.2035,6.3708],[-5.1812,6.3683],[-5.141,6.3312],[-5.1265,6.3124],[-5.1162,6.3082],[-5.0909,6.285],[-5.0743,6.2859],[-5.0376,6.2964],[-5.0263,6.28],[-5.0437,6.264],[-5.0367,6.2357],[-4.9987,6.2382],[-4.9576,6.257],[-4.9317,6.2609],[-4.824,6.2358],[-4.8179,6.2517],[-4.8064,6.2419],[-4.7822,6.2395],[-4.7322,6.2493],[-4.7196,6.2585],[-4.7054,6.2787],[-4.6845,6.2718],[-4.4997,6.2421],[-4.4808,6.2648],[-4.4678,6.2676],[-4.4576,6.2519],[-4.4335,6.2537],[-4.4164,6.2645],[-4.3576,6.2618],[-4.3029,6.2682],[-4.2772,6.2646],[-4.262,6.2345],[-4.2553,6.2286],[-4.2455,6.1972],[-4.2367,6.1864],[-4.1607,6.2306],[-4.1154,6.2612],[-4.1624,6.3354],[-4.1386,6.4719],[-4.0918,6.493],[-4.0797,6.4815],[-4.0605,6.5041],[-4.0252,6.5216],[-3.9849,6.5535],[-3.9732,6.5565],[-3.9569,6.5398],[-3.9429,6.5402],[-3.8988,6.5513],[-3.8811,6.534],[-3.8467,6.535],[-3.821,6.5765],[-3.8002,6.5837],[-3.772,6.616],[-3.7796,6.629],[-3.7762,6.6437],[-3.8019,6.6743],[-3.7865,6.6836],[-3.7689,6.7014],[-3.7812,6.7252],[-3.7918,6.7322],[-3.8013,6.7575],[-3.7961,6.7666],[-3.7771,6.774],[-3.7634,6.7733],[-3.7644,6.799],[-3.7496,6.8166],[-3.7548,6.8278],[-3.7726,6.8406],[-3.7822,6.8564],[-3.7682,6.8807],[-3.7421,6.9079],[-3.7365,6.923],[-3.7531,6.9563],[-3.7732,6.9266],[-3.7854,6.9387],[-3.7867,6.9625],[-3.7718,6.9906],[-3.7592,7.001],[-3.7376,7.0078],[-3.7213,7.0047],[-3.7195,7.0202],[-3.6899,7.039],[-3.679,7.0502],[-3.6629,7.0532],[-3.6386,7.0473],[-3.6221,7.0686],[-3.6306,7.0804],[-3.6225,7.091],[-3.5914,7.0748],[-3.5772,7.0965],[-3.6145,7.1078],[-3.6461,7.1289],[-3.646,7.1452],[-3.6541,7.173],[-3.646,7.2019],[-3.617,7.1919],[-3.6122,7.1798],[-3.5934,7.1893],[-3.5791,7.2287],[-3.5956,7.2551],[-3.5967,7.2736],[-3.5838,7.2831],[-3.5505,7.2773],[-3.5426,7.2936],[-3.5588,7.3026],[-3.5634,7.3144],[-3.5371,7.3459],[-3.5152,7.3537],[-3.5177,7.367],[-3.4991,7.3889],[-3.4957,7.4144],[-3.4982,7.4314],[-3.5183,7.4507],[-3.5351,7.4848],[-3.5699,7.4952],[-3.6027,7.5212],[-3.6002,7.5329],[-3.5846,7.5412],[-3.5751,7.5532],[-3.5838,7.5827],[-3.6011,7.5937],[-3.6183,7.5919],[-3.6343,7.5782],[-3.6471,7.5742],[-3.6615,7.585],[-3.6671,7.6032],[-3.6835,7.6241],[-3.6852,7.6404],[-3.7098,7.6473],[-3.7342,7.6657],[-3.7368,7.6912],[-3.7303,7.7193],[-3.7357,7.7345],[-3.7592,7.7314],[-3.8015,7.7417],[-3.8286,7.7388],[-3.8347,7.7475],[-3.8289,7.7643],[-3.8434,7.7717],[-3.8725,7.7688],[-3.8771,7.7763],[-3.8589,7.7974],[-3.8793,7.8149],[-3.8649,7.8434],[-3.8669,7.8555],[-3.8849,7.8772],[-3.9197,7.8787],[-3.9418,7.8913],[-3.9649,7.8907],[-3.9984,7.9001],[-3.9912,7.9121],[-3.9669,7.9148],[-3.9479,7.9242],[-3.9477,7.9324],[-3.9251,7.9564],[-3.9285,7.9747],[-3.9516,7.9691],[-3.9884,7.9656],[-4.0061,7.9494],[-4.0157,7.9533],[-4.0213,7.9791],[-3.9931,8.0099],[-3.9794,8.0108],[-3.9752,8.0232],[-3.9935,8.026],[-4.0182,8.048],[-4.033,8.0354],[-4.0593,8.0267],[-4.0908,8.0079],[-4.0978,7.9973],[-4.0757,7.9719],[-4.0645,7.9692],[-4.0739,7.9336],[-4.0822,7.9215],[-4.1006,7.9157],[-4.1163,7.9187],[-4.1522,7.9008],[-4.157,7.8894],[-4.193,7.8855],[-4.2081,7.8883],[-4.2238,7.9051],[-4.2418,7.8991],[-4.2405,7.9179],[-4.2656,7.9243],[-4.2848,7.8999],[-4.307,7.8991],[-4.3063,7.8734],[-4.3463,7.8452],[-4.4489,7.8284],[-4.5036,7.8165],[-4.5288,7.8226],[-4.5369,7.8071],[-4.5366,7.7737],[-4.5271,7.7616],[-4.5135,7.7333],[-4.5065,7.6706],[-4.4955,7.6543],[-4.4955,7.6122],[-4.5168,7.6014],[-4.534,7.6138],[-4.5515,7.6191],[-4.5722,7.619],[-4.5791,7.6083],[-4.5957,7.5998],[-4.5985,7.5801],[-4.6099,7.5699],[-4.6581,7.5517],[-4.6538,7.5404],[-4.6618,7.5295],[-4.6855,7.5174],[-4.7259,7.5309],[-4.7379,7.5302],[-4.7452,7.5515],[-4.7537,7.5557],[-4.7764,7.5802],[-4.7894,7.5647],[-4.8191,7.5715],[-4.8411,7.5729],[-4.8543,7.5876],[-4.8593,7.6032],[-4.8843,7.61],[-4.8872,7.5753],[-4.8962,7.5743],[-4.9052,7.556],[-4.93,7.5231],[-4.9256,7.4836],[-4.9503,7.4816],[-4.9656,7.4918],[-4.992,7.4661],[-5.0006,7.4746],[-5.0484,7.4327],[-5.0535,7.4163],[-5.0643,7.4055],[-5.0845,7.4097],[-5.113,7.3931],[-5.1215,7.3665],[-5.1451,7.3503],[-5.172,7.3463],[-5.1963,7.3269],[-5.2055,7.3138],[-5.2091,7.2951],[-5.2284,7.2804],[-5.2471,7.2883],[-5.2736,7.2573],[-5.2905,7.2312],[-5.321,7.2412],[-5.3523,7.2372],[-5.3935,7.2418],[-5.4068,7.2772],[-5.4283,7.2783],[-5.4346,7.2851],[-5.4371,7.3057],[-5.471,7.3028],[-5.4792,7.307],[-5.5009,7.2944],[-5.5681,7.2823],[-5.583,7.272],[-5.6072,7.2729],[-5.6128,7.2675],[-5.6377,7.2663],[-5.6509,7.2494],[-5.6582,7.233],[-5.6749,7.2349],[-5.6745,7.22],[-5.6523,7.2001],[-5.6377,7.199],[-5.6224,7.1901],[-5.6035,7.1861],[-5.6013,7.1731],[-5.6102,7.1543],[-5.5901,7.1417],[-5.5533,7.141],[-5.5425,7.1553],[-5.5239,7.1578],[-5.4811,7.133],[-5.4958,7.1063],[-5.4885,7.0533],[-5.4518,7.0395],[-5.4016,7.0527],[-5.38,7.0672],[-5.3603,7.0722],[-5.3386,7.0719],[-5.3145,7.0794],[-5.2851,7.0695],[-5.2713,7.0587],[-5.2309,7.0563],[-5.2151,7.0391],[-5.1901,7.0366],[-5.1809,7.0297],[-5.1405,7.0317],[-5.1286,7.0217],[-5.1185,6.9977],[-5.1025,6.9936],[-5.0929,6.9811],[-5.0569,6.9772],[-5.0336,6.9392],[-5.0261,6.9113],[-5.005,6.893],[-4.9909,6.8899],[-4.9886,6.8594],[-4.9747,6.8249],[-4.9544,6.8206],[-4.9619,6.7971],[-4.9588,6.7863],[-4.9756,6.7513],[-5.0379,6.7684],[-5.0471,6.7854],[-5.0799,6.7678],[-5.1107,6.7647],[-5.1358,6.7459],[-5.2,6.6773],[-5.2239,6.6564],[-5.2707,6.6389],[-5.2857,6.6042],[-5.2816,6.5757],[-5.2898,6.5619],[-5.3043,6.5512]]]},"properties":{"shapeName":"Lacs","shapeISO":"","shapeID":"83157122B20352934117266","shapeGroup":"CIV","shapeType":"ADM1"}},
{"type":"Feature","geometry":{"type":"Polygon","coordinates":[[[-7,6.5563],[-6.9988,6.565],[-7.021,6.5788],[-7.021,6.5901],[-6.9867,6.6228],[-6.9826,6.6545],[-6.9914,6.676],[-6.9894,6.6879],[-6.9731,6.7102],[-6.9897,6.7225],[-6.9829,6.7502],[-6.9961,6.7767],[-6.9908,6.7938],[-7.0056,6.8306],[-7.0445,6.8353],[-7.0596,6.8443],[-7.0561,6.8863],[-7.0442,6.8925],[-7.039,6.914],[-7.0587,6.9328],[-7.0634,6.9501],[-7.0576,6.9681],[-7.0566,6.994],[-7.0629,7.0039],[-7.0559,7.0274],[-7.0558,7.0483],[-7.0426,7.0903],[-7.0507,7.0993],[-7.0619,7.1325],[-7.0528,7.1482],[-7.064,7.1654],[-7.0843,7.1781],[-7.0852,7.1872],[-7.0638,7.1947],[-7.0609,7.2017],[-7.0719,7.2314],[-7.0689,7.2671],[-7.0634,7.2919],[-7.0687,7.3047],[-7.0589,7.3374],[-7.082,7.3695],[-7.0735,7.3839],[-7.0612,7.3843],[-7.0441,7.4002],[-7.0461,7.4212],[-7.0199,7.4245],[-7.0049,7.4404],[-7.0016,7.4566],[-7.0132,7.4646],[-7.027,7.4921],[-7.0245,7.5122],[-7.0408,7.5297],[-7.0399,7.5414],[-7.0139,7.5562],[-6.9878,7.5536],[-6.9869,7.5823],[-7.003,7.5943],[-7.0185,7.6153],[-7.0426,7.6109],[-7.0673,7.6418],[-7.0649,7.6559],[-7.0794,7.6825],[-7.0706,7.6953],[-7.0703,7.7146],[-7.0766,7.7262],[-7.0807,7.7954],[-7.0775,7.8498],[-7.0914,7.8567],[-7.1159,7.8567],[-7.1178,7.879],[-7.1034,7.8842],[-7.1012,7.9041],[-7.0726,7.9259],[-7.0687,7.943],[-7.0768,7.9567],[-7.0687,7.988],[-7.119,7.9781],[-7.2494,7.9774],[-7.2555,7.9877],[-7.2593,8.0122],[-7.273,8.0333],[-7.2875,8.0447],[-7.299,8.0636],[-7.3224,8.0692],[-7.3362,8.0827],[-7.3924,8.1119],[-7.4082,8.1235],[-7.4275,8.127],[-7.4365,8.1546],[-7.4572,8.1537],[-7.4731,8.1459],[-7.4887,8.125],[-7.4918,8.1042],[-7.5182,8.0792],[-7.522,8.0552],[-7.5092,8.0382],[-7.5089,8.0282],[-7.5185,7.991],[-7.518,7.9611],[-7.5243,7.9393],[-7.507,7.9237],[-7.5258,7.9139],[-7.5161,7.9034],[-7.5298,7.8684],[-7.5605,7.8672],[-7.5814,7.8601],[-7.6067,7.8719],[-7.6114,7.8551],[-7.6368,7.841],[-7.652,7.8402],[-7.668,7.8554],[-7.6781,7.8465],[-7.7032,7.8645],[-7.7107,7.8879],[-7.7234,7.882],[-7.7648,7.8881],[-7.7814,7.9008],[-7.7873,7.9138],[-7.8016,7.9175],[-7.7964,7.9336],[-7.8156,7.9428],[-7.8216,7.9545],[-7.8466,7.9576],[-7.8434,7.9806],[-7.8519,7.9882],[-7.8566,8.0184],[-7.8828,8.0224],[-7.9023,8.006],[-7.9137,8.0153],[-7.9331,8.0178],[-7.9395,8.0091],[-7.9607,8.0203],[-7.9774,8.0182],[-7.9756,8.0331],[-7.9937,8.0406],[-8.0086,8.0309],[-8.0373,8.0402],[-8.0512,8.0327],[-8.0744,7.9974],[-8.0836,7.9979],[-8.0879,7.9786],[-8.0968,7.9673],[-8.0966,7.9479],[-8.1305,7.88],[-8.1324,7.8602],[-8.1241,7.8307],[-8.0944,7.7947],[-8.1025,7.7827],[-8.1021,7.7613],[-8.1176,7.7186],[-8.134,7.6979],[-8.1496,7.6707],[-8.1419,7.661],[-8.1691,7.6398],[-8.1742,7.6192],[-8.1835,7.6054],[-8.1737,7.5741],[-8.1804,7.5575],[-8.2015,7.5464],[-8.2136,7.5308],[-8.2239,7.5407],[-8.2676,7.5701],[-8.3049,7.5862],[-8.3092,7.6053],[-8.3286,7.6004],[-8.3389,7.5851],[-8.3583,7.5805],[-8.3818,7.5839],[-8.3792,7.608],[-8.3901,7.6111],[-8.4004,7.6243],[-8.4263,7.5902],[-8.4698,7.5482],[-8.4709,7.5408],[-8.4523,7.523],[-8.4372,7.5311],[-8.4271,7.5266],[-8.4253,7.501],[-8.412,7.4742],[-8.4084,7.4479],[-8.4164,7.4215],[-8.4025,7.4076],[-8.3979,7.3882],[-8.4021,7.372],[-8.3964,7.3245],[-8.3758,7.2919],[-8.3561,7.2669],[-8.3684,7.2441],[-8.3607,7.2323],[-8.3414,7.2213],[-8.3362,7.2027],[-8.3174,7.2011],[-8.2926,7.1787],[-8.2828,7.1766],[-8.2822,7.1514],[-8.3029,7.1353],[-8.2959,7.1224],[-8.3071,7.0873],[-8.2918,7.0183],[-8.2762,7.0019],[-8.2889,6.9812],[-8.3247,6.9621],[-8.3164,6.9229],[-8.3086,6.9017],[-8.3258,6.8987],[-8.3332,6.8759],[-8.3232,6.8526],[-8.3286,6.8215],[-8.3206,6.8126],[-8.3301,6.7981],[-8.3463,6.79],[-8.345,6.7712],[-8.3639,6.7545],[-8.3652,6.7404],[-8.391,6.7253],[-8.3937,6.7134],[-8.4101,6.6988],[-8.4074,6.6808],[-8.4504,6.6569],[-8.4488,6.6429],[-8.485,6.6288],[-8.5036,6.6135],[-8.5031,6.6002],[-8.5282,6.5905],[-8.5318,6.5649],[-8.5603,6.5678],[-8.5656,6.5573],[-8.5611,6.5437],[-8.5667,6.5271],[-8.5807,6.5237],[-8.5841,6.5074],[-8.5783,6.4985],[-8.5491,6.4992],[-8.5281,6.4857],[-8.5222,6.4692],[-8.4977,6.4392],[-8.4785,6.4329],[-8.468,6.4532],[-8.4519,6.4692],[-8.4609,6.4969],[-8.4378,6.491],[-8.4354,6.4716],[-8.4266,6.4601],[-8.3987,6.4406],[-8.4115,6.43],[-8.3933,6.41],[-8.395,6.3971],[-8.3844,6.3838],[-8.4009,6.3765],[-8.4051,6.3656],[-8.3974,6.3509],[-8.3827,6.359],[-8.3629,6.3596],[-8.3443,6.3691],[-8.3317,6.3685],[-8.3073,6.3464],[-8.2861,6.3481],[-8.2829,6.32],[-8.2505,6.3178],[-8.2426,6.3233],[-8.2245,6.3056],[-8.1907,6.3005],[-8.1764,6.2871],[-8.172,6.2742],[-8.1583,6.2797],[-8.1223,6.2815],[-8.1087,6.2918],[-8.0968,6.2901],[-8.0908,6.3035],[-8.0778,6.2975],[-8.0606,6.3059],[-8.0473,6.3039],[-8.0294,6.3156],[-8.0024,6.3202],[-7.9924,6.2947],[-7.9697,6.296],[-7.9552,6.286],[-7.9456,6.2966],[-7.9339,6.2826],[-7.8988,6.2667],[-7.8806,6.2482],[-7.8575,6.2343],[-7.8338,6.2053],[-7.8466,6.1915],[-7.8387,6.1841],[-7.8413,6.1649],[-7.8492,6.1601],[-7.8494,6.137],[-7.8543,6.1276],[-7.8516,6.1042],[-7.8438,6.0761],[-7.8337,6.0831],[-7.8303,6.0975],[-7.7941,6.0769],[-7.8025,6.0581],[-7.7703,6.0357],[-7.7879,6.0283],[-7.7952,6.0037],[-7.795,5.9824],[-7.7647,5.9737],[-7.7663,5.9542],[-7.7326,5.9314],[-7.7047,5.9042],[-7.688,5.895],[-7.6752,5.9052],[-7.6876,5.9256],[-7.6744,5.9416],[-7.661,5.9342],[-7.6536,5.9162],[-7.6427,5.904],[-7.6222,5.9013],[-7.6171,5.8927],[-7.5883,5.8958],[-7.5592,5.8712],[-7.5649,5.8617],[-7.5623,5.8459],[-7.5485,5.8294],[-7.527,5.8537],[-7.5166,5.852],[-7.5084,5.8254],[-7.4856,5.8097],[-7.4752,5.8123],[-7.4729,5.8434],[-7.4655,5.8593],[-7.4512,5.8541],[-7.4362,5.84],[-7.4353,5.8206],[-7.4463,5.8021],[-7.432,5.7744],[-7.447,5.757],[-7.4358,5.7008],[-7.416,5.6569],[-7.4004,5.6365],[-7.3999,5.6236],[-7.3816,5.6208],[-7.3445,5.6276],[-7.3201,5.6179],[-7.3044,5.6278],[-7.2732,5.62],[-7.2554,5.6453],[-7.0878,5.6663],[-7.0908,5.8883],[-7.0842,6.0572],[-7.1079,6.1525],[-7.1191,6.1577],[-7.1227,6.1702],[-7.1539,6.1842],[-7.1644,6.1789],[-7.1812,6.182],[-7.2079,6.2054],[-7.2042,6.2295],[-7.1702,6.2648],[-7.1735,6.301],[-7.1835,6.3183],[-7.1704,6.3738],[-7.1617,6.3755],[-7.1558,6.3941],[-7.1276,6.4043],[-7.1563,6.4318],[-7.1572,6.4468],[-7.1498,6.4628],[-7.1299,6.4582],[-7,6.5563]]]},"properties":{"shapeName":"Montagnes","shapeISO":"","shapeID":"83157122B69310198422077","shapeGroup":"CIV","shapeType":"ADM1"}},
{"type":"Feature","geometry":{"type":"Polygon","coordinates":[[[-6.4045,6.2971],[-6.369,6.3024],[-6.3341,6.3111],[-6.3313,6.3206],[-6.3105,6.3444],[-6.2144,6.3358],[-6.0561,6.5031],[-6.0457,6.5094],[-6.0389,6.5269],[-5.9241,6.5251],[-5.7507,6.5007],[-5.7309,6.5231],[-5.7231,6.5505],[-5.7091,6.5586],[-5.6935,6.5505],[-5.6922,6.5374],[-5.6716,6.5258],[-5.6147,6.5508],[-5.5774,6.5587],[-5.5739,6.566],[-5.5824,6.5864],[-5.5668,6.5876],[-5.5406,6.6002],[-5.5321,6.5941],[-5.5138,6.6057],[-5.5086,6.5942],[-5.4865,6.6056],[-5.4881,6.6213],[-5.4329,6.6502],[-5.4123,6.6483],[-5.3997,6.6676],[-5.4066,6.6858],[-5.4057,6.7042],[-5.4229,6.739],[-5.4362,6.758],[-5.4428,6.7768],[-5.4711,6.8022],[-5.4879,6.8094],[-5.4905,6.8518],[-5.514,6.8637],[-5.5259,6.8863],[-5.5299,6.9125],[-5.5054,6.9303],[-5.5013,6.9875],[-5.4874,7.0112],[-5.4841,7.0273],[-5.4727,7.0341],[-5.4601,7.0307],[-5.4518,7.0395],[-5.4885,7.0533],[-5.4958,7.1063],[-5.4811,7.133],[-5.5239,7.1578],[-5.5425,7.1553],[-5.5533,7.141],[-5.5901,7.1417],[-5.6102,7.1543],[-5.6013,7.1731],[-5.6035,7.1861],[-5.6224,7.1901],[-5.6377,7.199],[-5.6523,7.2001],[-5.6745,7.22],[-5.6749,7.2349],[-5.6582,7.233],[-5.6509,7.2494],[-5.6534,7.2762],[-5.6739,7.2941],[-5.696,7.3016],[-5.7176,7.3181],[-5.7211,7.3285],[-5.6983,7.34],[-5.6907,7.3576],[-5.7229,7.3697],[-5.7345,7.406],[-5.7261,7.4177],[-5.7166,7.4473],[-5.7163,7.4603],[-5.7359,7.476],[-5.7351,7.4982],[-5.7117,7.5127],[-5.7094,7.5291],[-5.7259,7.5437],[-5.7405,7.5842],[-5.7645,7.5936],[-5.798,7.6326],[-5.783,7.6711],[-5.7941,7.6987],[-5.7947,7.7418],[-5.8051,7.7507],[-5.8357,7.7528],[-5.851,7.7377],[-5.8763,7.7328],[-5.9523,7.7295],[-5.9764,7.7526],[-5.9976,7.7468],[-6.0208,7.7535],[-6.0367,7.7475],[-6.0458,7.7254],[-6.0608,7.7159],[-6.0642,7.7025],[-6.0582,7.6803],[-6.0742,7.6564],[-6.105,7.6363],[-6.1313,7.6502],[-6.168,7.6578],[-6.1856,7.6755],[-6.2134,7.6842],[-6.2157,7.6927],[-6.2125,7.7285],[-6.2368,7.7566],[-6.2351,7.7733],[-6.2431,7.78],[-6.3346,7.7779],[-6.368,7.7711],[-6.462,7.7353],[-6.5986,7.7958],[-6.618,7.8],[-6.8222,7.8007],[-6.9984,7.8032],[-7.0807,7.7954],[-7.0766,7.7262],[-7.0703,7.7146],[-7.0706,7.6953],[-7.0794,7.6825],[-7.0649,7.6559],[-7.0673,7.6418],[-7.0426,7.6109],[-7.0185,7.6153],[-7.003,7.5943],[-6.9869,7.5823],[-6.9878,7.5536],[-7.0139,7.5562],[-7.0399,7.5414],[-7.0408,7.5297],[-7.0245,7.5122],[-7.027,7.4921],[-7.0132,7.4646],[-7.0016,7.4566],[-7.0049,7.4404],[-7.0199,7.4245],[-7.0461,7.4212],[-7.0441,7.4002],[-7.0612,7.3843],[-7.0735,7.3839],[-7.082,7.3695],[-7.0589,7.3374],[-7.0687,7.3047],[-7.0634,7.2919],[-7.0689,7.2671],[-7.0719,7.2314],[-7.0609,7.2017],[-7.0638,7.1947],[-7.0852,7.1872],[-7.0843,7.1781],[-7.064,7.1654],[-7.0528,7.1482],[-7.0619,7.1325],[-7.0507,7.0993],[-7.0426,7.0903],[-7.0558,7.0483],[-7.0559,7.0274],[-7.0629,7.0039],[-7.0566,6.994],[-7.0576,6.9681],[-7.0634,6.9501],[-7.0587,6.9328],[-7.039,6.914],[-7.0442,6.8925],[-7.0561,6.8863],[-7.0596,6.8443],[-7.0445,6.8353],[-7.0056,6.8306],[-6.9908,6.7938],[-6.9961,6.7767],[-6.9829,6.7502],[-6.9897,6.7225],[-6.9731,6.7102],[-6.9894,6.6879],[-6.9914,6.676],[-6.9826,6.6545],[-6.9867,6.6228],[-7.021,6.5901],[-7.021,6.5788],[-6.9988,6.565],[-7,6.5563],[-6.9801,6.5513],[-6.952,6.4879],[-6.9634,6.4702],[-6.982,6.4594],[-6.9999,6.4642],[-7.0002,6.4461],[-6.9871,6.4473],[-6.9788,6.4219],[-6.9342,6.3752],[-6.8958,6.3242],[-6.8682,6.2808],[-6.8595,6.2761],[-6.8087,6.2742],[-6.7667,6.2794],[-6.7111,6.2915],[-6.6795,6.296],[-6.6141,6.2995],[-6.5899,6.3199],[-6.5074,6.261],[-6.4767,6.2711],[-6.4374,6.2928],[-6.4045,6.2971]]]},"properties":{"shapeName":"Sassandra-Marahoue","shapeISO":"","shapeID":"83157122B74959515955757","shapeGroup":"CIV","shapeType":"ADM1"}},
{"type":"Feature","geometry":{"type":"Polygon","coordinates":[[[-6.7567,9.1173],[-6.7208,9.1163],[-6.6972,9.1004],[-6.7004,9.062],[-6.6747,9.0626],[-6.6531,9.0682],[-6.6102,9.0597],[-6.5832,9.0655],[-6.5699,9.0751],[-6.5605,9.1077],[-6.5774,9.1179],[-6.5672,9.1583],[-6.5527,9.1592],[-6.5037,9.1474],[-6.481,9.0796],[-6.4777,9.0616],[-6.4429,9.0669],[-6.4138,9.1013],[-6.3998,9.1321],[-6.3724,9.1569],[-6.3409,9.2097],[-6.3213,9.2091],[-6.3053,9.1953],[-6.2954,9.2008],[-6.2828,9.1932],[-6.2595,9.1995],[-6.2339,9.1688],[-6.2211,9.1495],[-6.2295,9.1248],[-6.2619,9.0813],[-6.2681,9.0621],[-6.2509,9.0327],[-6.2449,8.9944],[-6.1348,8.9415],[-6.1289,8.9114],[-6.0081,8.7035],[-5.9956,8.6756],[-5.9768,8.6537],[-5.9345,8.6485],[-5.913,8.6406],[-5.905,8.6472],[-5.7082,8.5386],[-5.6411,8.5447],[-5.6495,8.5528],[-5.6409,8.564],[-5.6504,8.5873],[-5.6319,8.5941],[-5.6378,8.6095],[-5.6649,8.6183],[-5.6889,8.6035],[-5.7071,8.6226],[-5.7018,8.6334],[-5.7105,8.6574],[-5.6934,8.6568],[-5.6879,8.677],[-5.69,8.6894],[-5.6809,8.7081],[-5.7041,8.7166],[-5.707,8.7262],[-5.6749,8.7296],[-5.6717,8.7357],[-5.7,8.7473],[-5.6985,8.7659],[-5.7272,8.7781],[-5.7177,8.7964],[-5.7182,8.8071],[-5.7041,8.8221],[-5.6986,8.8453],[-5.6738,8.8322],[-5.661,8.8355],[-5.6402,8.8318],[-5.6126,8.8367],[-5.5944,8.8485],[-5.5883,8.8666],[-5.5636,8.8651],[-5.5181,8.8736],[-5.4873,8.8684],[-5.4756,8.8566],[-5.4497,8.8723],[-5.4582,8.8848],[-5.4781,8.8881],[-5.4944,8.9055],[-5.4925,8.9134],[-5.4651,8.8982],[-5.4567,8.9168],[-5.474,8.9271],[-5.4712,8.9726],[-5.4529,8.9579],[-5.4383,8.9922],[-5.4243,8.9824],[-5.4155,8.9888],[-5.4326,9.0184],[-5.454,9.0336],[-5.4871,9.0421],[-5.5041,9.0633],[-5.4929,9.0772],[-5.4906,9.091],[-5.4723,9.0865],[-5.4526,9.0987],[-5.4597,9.121],[-5.4358,9.1454],[-5.4456,9.1539],[-5.4267,9.1686],[-5.4382,9.1842],[-5.4098,9.2006],[-5.4026,9.2102],[-5.4036,9.2329],[-5.3875,9.2543],[-5.3883,9.2737],[-5.3747,9.2826],[-5.3736,9.2982],[-5.3523,9.3202],[-5.3588,9.3276],[-5.3304,9.3672],[-5.3397,9.3716],[-5.3379,9.392],[-5.2996,9.3883],[-5.2713,9.399],[-5.2479,9.4022],[-5.2205,9.4124],[-5.2046,9.4221],[-5.1908,9.4147],[-5.179,9.3791],[-5.1388,9.3338],[-5.1142,9.3246],[-5.0519,9.3093],[-5.0195,9.3058],[-5.0063,9.2862],[-5.0097,9.2224],[-4.9903,9.2099],[-4.9771,9.1945],[-4.9843,9.1666],[-4.9631,9.1575],[-4.9428,9.1284],[-4.92,9.1246],[-4.8862,9.111],[-4.8851,9.0899],[-4.9001,9.0373],[-4.9078,9.0204],[-4.9054,8.9878],[-4.914,8.979],[-4.9154,8.9619],[-4.9259,8.958],[-4.9464,8.9324],[-4.9556,8.9288],[-4.6089,8.9207],[-4.5727,8.921],[-4.558,8.9268],[-4.5327,8.9136],[-4.5124,8.9164],[-4.498,8.8964],[-4.4835,8.8863],[-4.4892,8.8681],[-4.5079,8.834],[-4.4856,8.7912],[-4.468,8.7736],[-4.4507,8.7713],[-4.4346,8.741],[-4.4237,8.7472],[-4.4018,8.7464],[-4.3648,8.7552],[-4.3461,8.725],[-4.3209,8.7355],[-4.3002,8.737],[-4.2827,8.7481],[-4.2624,8.7431],[-4.2654,8.732],[-4.2493,8.7122],[-4.2482,8.7004],[-4.2337,8.6787],[-4.2028,8.6584],[-4.189,8.6744],[-4.1481,8.6674],[-4.1241,8.6517],[-4.1102,8.6478],[-4.1024,8.6596],[-4.0773,8.6574],[-4.0756,8.6673],[-4.0516,8.6563],[-4.0326,8.6607],[-3.982,8.6383],[-3.9561,8.6325],[-3.9432,8.6417],[-3.9414,8.6711],[-3.9271,8.6846],[-3.9144,8.6813],[-3.8977,8.6919],[-3.8726,8.6989],[-3.8629,8.7297],[-3.8108,8.7828],[-3.8059,8.825],[-3.8239,8.8327],[-3.8274,8.8616],[-3.8379,8.8765],[-3.8546,8.8835],[-3.8641,8.9154],[-3.8928,8.9258],[-3.9043,8.9511],[-3.8817,8.9601],[-3.8614,8.953],[-3.8453,8.9728],[-3.8282,8.9758],[-3.8001,8.9926],[-3.7977,9.0058],[-3.8164,9.02],[-3.8497,9.0247],[-3.8733,9.0508],[-3.8842,9.0482],[-3.9004,9.0548],[-3.8854,9.0662],[-3.8856,9.0896],[-3.8723,9.101],[-3.8504,9.0768],[-3.8421,9.0916],[-3.848,9.121],[-3.8644,9.119],[-3.8735,9.1075],[-3.9005,9.1085],[-3.9072,9.127],[-3.9049,9.1491],[-3.884,9.1699],[-3.9326,9.1701],[-3.9433,9.1795],[-3.9572,9.2056],[-4.0007,9.2036],[-4.0154,9.2165],[-4.0264,9.2114],[-4.0476,9.2378],[-4.0647,9.2431],[-4.0683,9.2536],[-4.1242,9.2622],[-4.1453,9.2486],[-4.1669,9.2286],[-4.1968,9.2608],[-4.1898,9.274],[-4.1699,9.2847],[-4.2086,9.3463],[-4.1862,9.3643],[-4.1844,9.3844],[-4.1772,9.3994],[-4.1966,9.4149],[-4.1906,9.4481],[-4.1973,9.4572],[-4.2315,9.4779],[-4.2412,9.4954],[-4.2394,9.5335],[-4.2757,9.5569],[-4.2988,9.5899],[-4.307,9.5948],[-4.3282,9.6078],[-4.3464,9.6238],[-4.3699,9.6136],[-4.3707,9.5926],[-4.39,9.5944],[-4.4002,9.6073],[-4.4092,9.6486],[-4.4256,9.6604],[-4.4514,9.6496],[-4.5064,9.6466],[-4.5158,9.662],[-4.518,9.6972],[-4.5003,9.722],[-4.5032,9.7397],[-4.5233,9.7501],[-4.5431,9.7473],[-4.5495,9.7319],[-4.5421,9.712],[-4.5626,9.6888],[-4.5816,9.6932],[-4.6078,9.7217],[-4.6196,9.7027],[-4.6384,9.7094],[-4.6498,9.7034],[-4.6536,9.6858],[-4.6797,9.6754],[-4.6983,9.686],[-4.715,9.7204],[-4.7347,9.7487],[-4.7581,9.7556],[-4.7755,9.7495],[-4.7891,9.7663],[-4.8085,9.7743],[-4.8059,9.7867],[-4.7814,9.7776],[-4.7886,9.8153],[-4.7812,9.8307],[-4.7962,9.8439],[-4.8173,9.845],[-4.82,9.8606],[-4.835,9.8705],[-4.8448,9.8683],[-4.8811,9.8783],[-4.9005,9.8894],[-4.9142,9.8895],[-4.9297,9.8687],[-4.938,9.8799],[-4.9563,9.8881],[-4.965,9.9013],[-4.9516,9.9215],[-4.958,9.942],[-4.9351,9.9499],[-4.9492,9.9602],[-4.9557,9.9752],[-4.9782,9.9828],[-4.9765,10.0036],[-4.9552,9.9983],[-4.9613,10.0257],[-4.9704,10.0413],[-4.9927,10.062],[-5.0106,10.0641],[-5.0167,10.0778],[-5.0082,10.0863],[-5.0054,10.1041],[-5.0238,10.0964],[-5.0378,10.082],[-5.0565,10.0822],[-5.0481,10.1031],[-5.0664,10.1043],[-5.0709,10.1213],[-5.0713,10.1495],[-5.0622,10.1702],[-5.0738,10.1785],[-5.0955,10.1684],[-5.1013,10.1793],[-5.0826,10.1887],[-5.0809,10.2151],[-5.0897,10.2196],[-5.1168,10.2008],[-5.1204,10.2135],[-5.1089,10.2376],[-5.1234,10.2467],[-5.1184,10.2572],[-5.0993,10.2666],[-5.118,10.2759],[-5.1122,10.295],[-5.1339,10.3066],[-5.1472,10.2875],[-5.1661,10.2822],[-5.1829,10.2971],[-5.2275,10.3117],[-5.252,10.3054],[-5.2643,10.3097],[-5.2934,10.303],[-5.3277,10.2881],[-5.3513,10.2991],[-5.3583,10.2819],[-5.3731,10.29],[-5.3905,10.2886],[-5.4099,10.3013],[-5.4188,10.3191],[-5.4375,10.3211],[-5.4386,10.3353],[-5.4576,10.3389],[-5.4658,10.3718],[-5.4819,10.3705],[-5.4886,10.4012],[-5.5297,10.4393],[-5.5493,10.4497],[-5.5592,10.4605],[-5.5791,10.4525],[-5.6005,10.455],[-5.6185,10.4517],[-5.6309,10.4584],[-5.6491,10.4581],[-5.6588,10.465],[-5.6862,10.4578],[-5.7135,10.4302],[-5.7499,10.4279],[-5.7736,10.4382],[-5.8194,10.4064],[-5.8268,10.3876],[-5.8508,10.3736],[-5.8669,10.3724],[-5.876,10.3322],[-5.8715,10.3178],[-5.8917,10.2988],[-5.881,10.283],[-5.8863,10.2635],[-5.9005,10.259],[-5.9233,10.2751],[-5.956,10.2693],[-5.9521,10.2476],[-5.9928,10.1944],[-6.0148,10.2005],[-6.0427,10.2015],[-6.0718,10.2162],[-6.1303,10.2144],[-6.179,10.2292],[-6.2004,10.2449],[-6.2003,10.2647],[-6.2263,10.2697],[-6.2256,10.2906],[-6.2382,10.3034],[-6.224,10.3194],[-6.2081,10.3205],[-6.1893,10.3285],[-6.2017,10.3456],[-6.1753,10.3712],[-6.1958,10.3926],[-6.1885,10.418],[-6.1689,10.418],[-6.1674,10.4281],[-6.1947,10.4538],[-6.1964,10.4743],[-6.1725,10.4935],[-6.1817,10.5041],[-6.2123,10.5073],[-6.2219,10.53],[-6.2436,10.522],[-6.2552,10.5374],[-6.2489,10.5524],[-6.2311,10.5604],[-6.2146,10.5846],[-6.2174,10.5989],[-6.2342,10.617],[-6.2238,10.6294],[-6.2095,10.6294],[-6.2068,10.6429],[-6.2261,10.6627],[-6.2414,10.6649],[-6.236,10.6895],[-6.2394,10.705],[-6.2215,10.7312],[-6.2626,10.7457],[-6.3254,10.6898],[-6.3502,10.6943],[-6.4039,10.7145],[-6.4208,10.7038],[-6.4196,10.6481],[-6.4107,10.6026],[-6.4329,10.5753],[-6.4403,10.574],[-6.4842,10.5853],[-6.5093,10.5843],[-6.5462,10.5955],[-6.5672,10.62],[-6.591,10.624],[-6.6088,10.6405],[-6.6152,10.6625],[-6.6252,10.6726],[-6.6419,10.6786],[-6.6557,10.6684],[-6.6538,10.6313],[-6.6637,10.6326],[-6.6762,10.6019],[-6.665,10.5907],[-6.6702,10.5711],[-6.6698,10.5478],[-6.6628,10.5405],[-6.6817,10.5256],[-6.6752,10.5108],[-6.6814,10.5017],[-6.6752,10.4701],[-6.6625,10.4578],[-6.6466,10.458],[-6.6463,10.4463],[-6.6308,10.4421],[-6.6321,10.4284],[-6.6493,10.4031],[-6.6487,10.3682],[-6.6648,10.3594],[-6.6527,10.3444],[-6.6535,10.3345],[-6.6341,10.3088],[-6.6305,10.2899],[-6.6367,10.2541],[-6.6228,10.2373],[-6.6059,10.2402],[-6.5928,10.2311],[-6.5959,10.186],[-6.5862,10.165],[-6.5909,10.1573],[-6.6144,10.1439],[-6.675,10.122],[-6.7061,10.1017],[-6.7457,10.0968],[-6.7594,10.101],[-6.7865,10.132],[-6.8267,10.136],[-6.8352,10.1291],[-6.8549,10.129],[-6.8843,10.1054],[-6.8972,10.1033],[-6.914,10.0705],[-6.9293,10.0597],[-6.9325,10.0434],[-6.9291,10.0218],[-6.9472,9.9975],[-6.9594,9.9914],[-6.9678,9.9678],[-6.9318,9.9588],[-6.8882,9.9617],[-6.8322,9.9534],[-6.7917,9.9537],[-6.7826,9.9256],[-6.7628,9.9028],[-6.7525,9.8846],[-6.7541,9.8712],[-6.7418,9.8547],[-6.7419,9.8394],[-6.7603,9.8301],[-6.7563,9.794],[-6.7692,9.7866],[-6.7769,9.7694],[-6.7443,9.7551],[-6.7421,9.7493],[-6.7615,9.7078],[-6.7469,9.6936],[-6.7637,9.6866],[-6.7629,9.6674],[-6.7847,9.6366],[-6.7959,9.6073],[-6.7909,9.5831],[-6.7992,9.576],[-6.7861,9.5601],[-6.7771,9.5611],[-6.7582,9.5358],[-6.7436,9.5268],[-6.7457,9.5015],[-6.7568,9.4956],[-6.7666,9.4797],[-6.7655,9.4677],[-6.7827,9.4555],[-6.7996,9.4353],[-6.7671,9.4224],[-6.7815,9.4071],[-6.7936,9.4065],[-6.7997,9.3945],[-6.7999,9.3742],[-6.7902,9.3535],[-6.7801,9.3495],[-6.7859,9.3296],[-6.7864,9.2946],[-6.7816,9.2818],[-6.7613,9.2862],[-6.7369,9.2683],[-6.7456,9.2494],[-6.7472,9.2034],[-6.7597,9.1656],[-6.7403,9.1467],[-6.756,9.1273],[-6.7567,9.1173]]]},"properties":{"shapeName":"Savanes","shapeISO":"","shapeID":"83157122B28791092437733","shapeGroup":"CIV","shapeType":"ADM1"}},
{"type":"Feature","geometry":{"type":"Polygon","coordinates":[[[-4.0182,8.048],[-4.0166,8.0616],[-4.0049,8.081],[-4.0066,8.0961],[-3.9957,8.1064],[-3.9686,8.1079],[-3.9384,8.1035],[-3.9325,8.118],[-3.951,8.1231],[-3.9829,8.1643],[-4.0103,8.1742],[-4.0246,8.1722],[-4.0343,8.1845],[-4.0336,8.1982],[-4.0144,8.2187],[-4.0093,8.2314],[-4.0186,8.2454],[-4.0423,8.2641],[-4.0619,8.2883],[-4.0553,8.3038],[-4.033,8.307],[-3.9759,8.2982],[-3.968,8.3098],[-3.9682,8.3262],[-3.9611,8.3475],[-3.982,8.3533],[-3.9918,8.3631],[-3.9876,8.3734],[-3.9645,8.3801],[-3.9586,8.3956],[-3.9831,8.4022],[-3.9967,8.4014],[-4.0064,8.4255],[-3.9963,8.4337],[-3.97,8.4337],[-3.9362,8.4504],[-3.9354,8.4672],[-3.9261,8.4789],[-3.9266,8.4922],[-3.9485,8.5053],[-3.9823,8.5144],[-3.9818,8.5362],[-3.9684,8.5449],[-3.9443,8.5483],[-3.9172,8.5691],[-3.9,8.5764],[-3.9176,8.6057],[-3.945,8.6288],[-3.9432,8.6417],[-3.9561,8.6325],[-3.982,8.6383],[-4.0326,8.6607],[-4.0516,8.6563],[-4.0756,8.6673],[-4.0773,8.6574],[-4.1024,8.6596],[-4.1102,8.6478],[-4.1241,8.6517],[-4.1481,8.6674],[-4.189,8.6744],[-4.2028,8.6584],[-4.2337,8.6787],[-4.2482,8.7004],[-4.2493,8.7122],[-4.2654,8.732],[-4.2624,8.7431],[-4.2827,8.7481],[-4.3002,8.737],[-4.3209,8.7355],[-4.3461,8.725],[-4.3648,8.7552],[-4.4018,8.7464],[-4.4237,8.7472],[-4.4346,8.741],[-4.4507,8.7713],[-4.468,8.7736],[-4.4856,8.7912],[-4.5079,8.834],[-4.4892,8.8681],[-4.4835,8.8863],[-4.498,8.8964],[-4.5124,8.9164],[-4.5327,8.9136],[-4.558,8.9268],[-4.5727,8.921],[-4.6089,8.9207],[-4.9556,8.9288],[-4.9464,8.9324],[-4.9259,8.958],[-4.9154,8.9619],[-4.914,8.979],[-4.9054,8.9878],[-4.9078,9.0204],[-4.9001,9.0373],[-4.8851,9.0899],[-4.8862,9.111],[-4.92,9.1246],[-4.9428,9.1284],[-4.9631,9.1575],[-4.9843,9.1666],[-4.9771,9.1945],[-4.9903,9.2099],[-5.0097,9.2224],[-5.0063,9.2862],[-5.0195,9.3058],[-5.0519,9.3093],[-5.1142,9.3246],[-5.1388,9.3338],[-5.179,9.3791],[-5.1908,9.4147],[-5.2046,9.4221],[-5.2205,9.4124],[-5.2479,9.4022],[-5.2713,9.399],[-5.2996,9.3883],[-5.3379,9.392],[-5.3397,9.3716],[-5.3304,9.3672],[-5.3588,9.3276],[-5.3523,9.3202],[-5.3736,9.2982],[-5.3747,9.2826],[-5.3883,9.2737],[-5.3875,9.2543],[-5.4036,9.2329],[-5.4026,9.2102],[-5.4098,9.2006],[-5.4382,9.1842],[-5.4267,9.1686],[-5.4456,9.1539],[-5.4358,9.1454],[-5.4597,9.121],[-5.4526,9.0987],[-5.4723,9.0865],[-5.4906,9.091],[-5.4929,9.0772],[-5.5041,9.0633],[-5.4871,9.0421],[-5.454,9.0336],[-5.4326,9.0184],[-5.4155,8.9888],[-5.4243,8.9824],[-5.4383,8.9922],[-5.4529,8.9579],[-5.4712,8.9726],[-5.474,8.9271],[-5.4567,8.9168],[-5.4651,8.8982],[-5.4925,8.9134],[-5.4944,8.9055],[-5.4781,8.8881],[-5.4582,8.8848],[-5.4497,8.8723],[-5.4756,8.8566],[-5.4873,8.8684],[-5.5181,8.8736],[-5.5636,8.8651],[-5.5883,8.8666],[-5.5944,8.8485],[-5.6126,8.8367],[-5.6402,8.8318],[-5.661,8.8355],[-5.6738,8.8322],[-5.6986,8.8453],[-5.7041,8.8221],[-5.7182,8.8071],[-5.7177,8.7964],[-5.7272,8.7781],[-5.6985,8.7659],[-5.7,8.7473],[-5.6717,8.7357],[-5.6749,8.7296],[-5.707,8.7262],[-5.7041,8.7166],[-5.6809,8.7081],[-5.69,8.6894],[-5.6879,8.677],[-5.6934,8.6568],[-5.7105,8.6574],[-5.7018,8.6334],[-5.7071,8.6226],[-5.6889,8.6035],[-5.6649,8.6183],[-5.6378,8.6095],[-5.6319,8.5941],[-5.6504,8.5873],[-5.6409,8.564],[-5.6495,8.5528],[-5.6411,8.5447],[-5.6214,8.5476],[-5.6036,8.5399],[-5.6066,8.5313],[-5.5898,8.518],[-5.5951,8.5009],[-5.5757,8.4874],[-5.5216,8.4662],[-5.5367,8.4498],[-5.5547,8.4461],[-5.5708,8.4584],[-5.5912,8.4637],[-5.6296,8.4536],[-5.6311,8.4379],[-5.6058,8.4236],[-5.5857,8.4164],[-5.5508,8.3824],[-5.5183,8.3782],[-5.5079,8.3823],[-5.495,8.3589],[-5.4835,8.3615],[-5.4343,8.3342],[-5.4192,8.3136],[-5.3943,8.3038],[-5.3929,8.2823],[-5.3536,8.2673],[-5.375,8.2568],[-5.3673,8.2364],[-5.3479,8.2223],[-5.3568,8.2006],[-5.3518,8.1765],[-5.3635,8.1658],[-5.3889,8.1683],[-5.4035,8.1653],[-5.4071,8.1557],[-5.3973,8.1384],[-5.3974,8.1051],[-5.4242,8.1027],[-5.4474,8.1158],[-5.4599,8.106],[-5.4752,8.1088],[-5.4853,8.1209],[-5.4946,8.111],[-5.5194,8.1099],[-5.5153,8.0847],[-5.5285,8.0783],[-5.5278,8.0646],[-5.5424,8.06],[-5.5458,8.0421],[-5.5692,8.0236],[-5.7265,8.0263],[-5.7365,8.0203],[-5.7385,7.987],[-5.7497,7.977],[-5.7521,7.944],[-5.7646,7.918],[-5.7695,7.8965],[-5.7668,7.8697],[-5.7716,7.8426],[-5.7611,7.8132],[-5.7695,7.8011],[-5.7475,7.7727],[-5.7383,7.7511],[-5.6888,7.6999],[-5.6934,7.6608],[-5.6884,7.6316],[-5.7225,7.6167],[-5.7029,7.6022],[-5.688,7.5731],[-5.6963,7.5476],[-5.7259,7.5437],[-5.7094,7.5291],[-5.7117,7.5127],[-5.7351,7.4982],[-5.7359,7.476],[-5.7163,7.4603],[-5.7166,7.4473],[-5.7261,7.4177],[-5.7345,7.406],[-5.7229,7.3697],[-5.6907,7.3576],[-5.6983,7.34],[-5.7211,7.3285],[-5.7176,7.3181],[-5.696,7.3016],[-5.6739,7.2941],[-5.6534,7.2762],[-5.6509,7.2494],[-5.6377,7.2663],[-5.6128,7.2675],[-5.6072,7.2729],[-5.583,7.272],[-5.5681,7.2823],[-5.5009,7.2944],[-5.4792,7.307],[-5.471,7.3028],[-5.4371,7.3057],[-5.4346,7.2851],[-5.4283,7.2783],[-5.4068,7.2772],[-5.3935,7.2418],[-5.3523,7.2372],[-5.321,7.2412],[-5.2905,7.2312],[-5.2736,7.2573],[-5.2471,7.2883],[-5.2284,7.2804],[-5.2091,7.2951],[-5.2055,7.3138],[-5.1963,7.3269],[-5.172,7.3463],[-5.1451,7.3503],[-5.1215,7.3665],[-5.113,7.3931],[-5.0845,7.4097],[-5.0643,7.4055],[-5.0535,7.4163],[-5.0484,7.4327],[-5.0006,7.4746],[-4.992,7.4661],[-4.9656,7.4918],[-4.9503,7.4816],[-4.9256,7.4836],[-4.93,7.5231],[-4.9052,7.556],[-4.8962,7.5743],[-4.8872,7.5753],[-4.8843,7.61],[-4.8593,7.6032],[-4.8543,7.5876],[-4.8411,7.5729],[-4.8191,7.5715],[-4.7894,7.5647],[-4.7764,7.5802],[-4.7537,7.5557],[-4.7452,7.5515],[-4.7379,7.5302],[-4.7259,7.5309],[-4.6855,7.5174],[-4.6618,7.5295],[-4.6538,7.5404],[-4.6581,7.5517],[-4.6099,7.5699],[-4.5985,7.5801],[-4.5957,7.5998],[-4.5791,7.6083],[-4.5722,7.619],[-4.5515,7.6191],[-4.534,7.6138],[-4.5168,7.6014],[-4.4955,7.6122],[-4.4955,7.6543],[-4.5065,7.6706],[-4.5135,7.7333],[-4.5271,7.7616],[-4.5366,7.7737],[-4.5369,7.8071],[-4.5288,7.8226],[-4.5036,7.8165],[-4.4489,7.8284],[-4.3463,7.8452],[-4.3063,7.8734],[-4.307,7.8991],[-4.2848,7.8999],[-4.2656,7.9243],[-4.2405,7.9179],[-4.2418,7.8991],[-4.2238,7.9051],[-4.2081,7.8883],[-4.193,7.8855],[-4.157,7.8894],[-4.1522,7.9008],[-4.1163,7.9187],[-4.1006,7.9157],[-4.0822,7.9215],[-4.0739,7.9336],[-4.0645,7.9692],[-4.0757,7.9719],[-4.0978,7.9973],[-4.0908,8.0079],[-4.0593,8.0267],[-4.033,8.0354],[-4.0182,8.048]]]},"properties":{"shapeName":"Valle Du Bandama","shapeISO":"","shapeID":"83157122B62906982633778","shapeGroup":"CIV","shapeType":"ADM1"}},
{"type":"Feature","geometry":{"type":"Polygon","coordinates":[[[-7.7192,9.07],[-7.7345,9.0619],[-7.7639,9.0706],[-7.7916,9.0704],[-7.8216,9.056],[-7.8364,9.0695],[-7.8447,9.0453],[-7.8576,9.0301],[-7.8873,9.0291],[-7.8954,9.0099],[-7.933,8.9792],[-7.9234,8.9558],[-7.9274,8.9434],[-7.9167,8.9343],[-7.9374,8.9067],[-7.9252,8.9031],[-7.911,8.8886],[-7.9306,8.8734],[-7.936,8.846],[-7.9536,8.848],[-7.9541,8.8203],[-7.9406,8.8025],[-7.9389,8.7852],[-7.9277,8.782],[-7.9162,8.7687],[-7.8925,8.7723],[-7.8805,8.785],[-7.8586,8.7856],[-7.8531,8.7724],[-7.8285,8.7673],[-7.8193,8.7532],[-7.8037,8.7619],[-7.7668,8.7564],[-7.7809,8.7335],[-7.7645,8.7247],[-7.7349,8.7257],[-7.7357,8.6843],[-7.707,8.6519],[-7.6855,8.6496],[-7.6598,8.6152],[-7.6902,8.5659],[-7.6901,8.5519],[-7.655,8.5009],[-7.6549,8.4712],[-7.6662,8.4594],[-7.6623,8.4395],[-7.6673,8.4243],[-7.6421,8.3932],[-7.6381,8.3816],[-7.6492,8.3673],[-7.6761,8.375],[-7.6825,8.3701],[-7.7128,8.3755],[-7.7344,8.3742],[-7.7464,8.3937],[-7.7762,8.4675],[-7.7902,8.4801],[-7.8039,8.4775],[-7.8181,8.487],[-7.8261,8.4701],[-7.8191,8.4361],[-7.8264,8.4241],[-7.8713,8.4178],[-7.8793,8.4324],[-7.9007,8.4354],[-7.9101,8.4524],[-7.8987,8.4679],[-7.9072,8.4873],[-7.927,8.5022],[-7.9383,8.4951],[-7.9545,8.4972],[-7.9699,8.4852],[-7.9981,8.4861],[-8.0125,8.4925],[-8.0293,8.4926],[-8.052,8.5038],[-8.076,8.4964],[-8.0896,8.4815],[-8.1009,8.4771],[-8.1242,8.4866],[-8.1437,8.489],[-8.1772,8.4999],[-8.1846,8.4969],[-8.1924,8.4757],[-8.2099,8.4623],[-8.2298,8.4649],[-8.2369,8.4483],[-8.2377,8.4175],[-8.226,8.4014],[-8.2286,8.3914],[-8.2104,8.3494],[-8.2208,8.3206],[-8.2131,8.2952],[-8.2143,8.2788],[-8.233,8.2634],[-8.2421,8.243],[-8.2397,8.23],[-8.2076,8.2174],[-8.189,8.2056],[-8.1715,8.1839],[-8.1456,8.1782],[-8.1172,8.1856],[-8.0728,8.1675],[-8.0628,8.1553],[-8.0453,8.1533],[-8.0462,8.1673],[-8.0242,8.1876],[-8.0078,8.1802],[-7.9951,8.1813],[-7.986,8.1913],[-7.9725,8.1881],[-7.9835,8.1709],[-7.9877,8.1349],[-7.9838,8.1235],[-7.9958,8.1157],[-8.0021,8.0991],[-7.9946,8.0899],[-7.9697,8.0833],[-7.9484,8.0486],[-7.9372,8.0439],[-7.9331,8.0178],[-7.9137,8.0153],[-7.9023,8.006],[-7.8828,8.0224],[-7.8566,8.0184],[-7.8519,7.9882],[-7.8434,7.9806],[-7.8466,7.9576],[-7.8216,7.9545],[-7.8156,7.9428],[-7.7964,7.9336],[-7.8016,7.9175],[-7.7873,7.9138],[-7.7814,7.9008],[-7.7648,7.8881],[-7.7234,7.882],[-7.7107,7.8879],[-7.7032,7.8645],[-7.6781,7.8465],[-7.668,7.8554],[-7.652,7.8402],[-7.6368,7.841],[-7.6114,7.8551],[-7.6067,7.8719],[-7.5814,7.8601],[-7.5605,7.8672],[-7.5298,7.8684],[-7.5161,7.9034],[-7.5258,7.9139],[-7.507,7.9237],[-7.5243,7.9393],[-7.518,7.9611],[-7.5185,7.991],[-7.5089,8.0282],[-7.5092,8.0382],[-7.522,8.0552],[-7.5182,8.0792],[-7.4918,8.1042],[-7.4887,8.125],[-7.4731,8.1459],[-7.4572,8.1537],[-7.4365,8.1546],[-7.4275,8.127],[-7.4082,8.1235],[-7.3924,8.1119],[-7.3362,8.0827],[-7.3224,8.0692],[-7.299,8.0636],[-7.2875,8.0447],[-7.273,8.0333],[-7.2593,8.0122],[-7.2555,7.9877],[-7.2494,7.9774],[-7.119,7.9781],[-7.0687,7.988],[-7.0768,7.9567],[-7.0687,7.943],[-7.0726,7.9259],[-7.1012,7.9041],[-7.1034,7.8842],[-7.1178,7.879],[-7.1159,7.8567],[-7.0914,7.8567],[-7.0775,7.8498],[-7.0807,7.7954],[-6.9984,7.8032],[-6.8222,7.8007],[-6.618,7.8],[-6.5986,7.7958],[-6.462,7.7353],[-6.368,7.7711],[-6.3346,7.7779],[-6.2431,7.78],[-6.2351,7.7733],[-6.2368,7.7566],[-6.2125,7.7285],[-6.2157,7.6927],[-6.2134,7.6842],[-6.1856,7.6755],[-6.168,7.6578],[-6.1313,7.6502],[-6.105,7.6363],[-6.0742,7.6564],[-6.0582,7.6803],[-6.0642,7.7025],[-6.0608,7.7159],[-6.0458,7.7254],[-6.0367,7.7475],[-6.0208,7.7535],[-5.9976,7.7468],[-5.9764,7.7526],[-5.9523,7.7295],[-5.8763,7.7328],[-5.851,7.7377],[-5.8357,7.7528],[-5.8051,7.7507],[-5.7947,7.7418],[-5.7941,7.6987],[-5.783,7.6711],[-5.798,7.6326],[-5.7645,7.5936],[-5.7405,7.5842],[-5.7259,7.5437],[-5.6963,7.5476],[-5.688,7.5731],[-5.7029,7.6022],[-5.7225,7.6167],[-5.6884,7.6316],[-5.6934,7.6608],[-5.6888,7.6999],[-5.7383,7.7511],[-5.7475,7.7727],[-5.7695,7.8011],[-5.7611,7.8132],[-5.7716,7.8426],[-5.7668,7.8697],[-5.7695,7.8965],[-5.7646,7.918],[-5.7521,7.944],[-5.7497,7.977],[-5.7385,7.987],[-5.7365,8.0203],[-5.7265,8.0263],[-5.5692,8.0236],[-5.5458,8.0421],[-5.5424,8.06],[-5.5278,8.0646],[-5.5285,8.0783],[-5.5153,8.0847],[-5.5194,8.1099],[-5.4946,8.111],[-5.4853,8.1209],[-5.4752,8.1088],[-5.4599,8.106],[-5.4474,8.1158],[-5.4242,8.1027],[-5.3974,8.1051],[-5.3973,8.1384],[-5.4071,8.1557],[-5.4035,8.1653],[-5.3889,8.1683],[-5.3635,8.1658],[-5.3518,8.1765],[-5.3568,8.2006],[-5.3479,8.2223],[-5.3673,8.2364],[-5.375,8.2568],[-5.3536,8.2673],[-5.3929,8.2823],[-5.3943,8.3038],[-5.4192,8.3136],[-5.4343,8.3342],[-5.4835,8.3615],[-5.495,8.3589],[-5.5079,8.3823],[-5.5183,8.3782],[-5.5508,8.3824],[-5.5857,8.4164],[-5.6058,8.4236],[-5.6311,8.4379],[-5.6296,8.4536],[-5.5912,8.4637],[-5.5708,8.4584],[-5.5547,8.4461],[-5.5367,8.4498],[-5.5216,8.4662],[-5.5757,8.4874],[-5.5951,8.5009],[-5.5898,8.518],[-5.6066,8.5313],[-5.6036,8.5399],[-5.6214,8.5476],[-5.6411,8.5447],[-5.7082,8.5386],[-5.905,8.6472],[-5.913,8.6406],[-5.9345,8.6485],[-5.9768,8.6537],[-5.9956,8.6756],[-6.0081,8.7035],[-6.1289,8.9114],[-6.1348,8.9415],[-6.2449,8.9944],[-6.2509,9.0327],[-6.2681,9.0621],[-6.2619,9.0813],[-6.2295,9.1248],[-6.2211,9.1495],[-6.2339,9.1688],[-6.2595,9.1995],[-6.2828,9.1932],[-6.2954,9.2008],[-6.3053,9.1953],[-6.3213,9.2091],[-6.3409,9.2097],[-6.3724,9.1569],[-6.3998,9.1321],[-6.4138,9.1013],[-6.4429,9.0669],[-6.4777,9.0616],[-6.481,9.0796],[-6.5037,9.1474],[-6.5527,9.1592],[-6.5672,9.1583],[-6.5774,9.1179],[-6.5605,9.1077],[-6.5699,9.0751],[-6.5832,9.0655],[-6.6102,9.0597],[-6.6531,9.0682],[-6.6747,9.0626],[-6.7004,9.062],[-6.6972,9.1004],[-6.7208,9.1163],[-6.7567,9.1173],[-6.7723,9.1055],[-6.7871,9.1036],[-6.8159,9.0872],[-6.8343,9.0705],[-6.849,9.0762],[-6.8714,9.0765],[-6.8884,9.0677],[-6.8989,9.0481],[-6.9033,9.0255],[-6.9068,8.9799],[-6.9021,8.9388],[-6.918,8.9447],[-6.923,8.9552],[-6.9451,8.9742],[-6.9616,8.9648],[-6.9858,8.9734],[-7.0184,8.968],[-7.0394,8.9808],[-7.0531,9.0049],[-7.0712,9.0293],[-7.1002,9.0444],[-7.1124,9.045],[-7.1466,8.9987],[-7.1699,8.9925],[-7.1804,8.9528],[-7.2209,8.9567],[-7.2281,8.9432],[-7.2253,8.9277],[-7.2115,8.9186],[-7.2176,8.8936],[-7.209,8.8671],[-7.2086,8.8443],[-7.1979,8.8461],[-7.2009,8.821],[-7.1931,8.8025],[-7.2023,8.7899],[-7.1899,8.7728],[-7.2028,8.7564],[-7.1936,8.7372],[-7.204,8.7335],[-7.1997,8.7067],[-7.2074,8.6888],[-7.2089,8.6688],[-7.2159,8.6542],[-7.209,8.6423],[-7.2133,8.6301],[-7.2031,8.6141],[-7.1981,8.5836],[-7.2068,8.5732],[-7.1999,8.5598],[-7.1801,8.5426],[-7.1776,8.526],[-7.1987,8.515],[-7.223,8.5518],[-7.2182,8.5686],[-7.2356,8.5937],[-7.2409,8.6291],[-7.28,8.6706],[-7.3082,8.6816],[-7.3215,8.6748],[-7.3654,8.6835],[-7.3648,8.7088],[-7.373,8.7152],[-7.4012,8.7577],[-7.4271,8.7635],[-7.4517,8.7798],[-7.469,8.8029],[-7.5098,8.8377],[-7.5333,8.8436],[-7.5478,8.8688],[-7.5454,8.8818],[-7.5695,8.9152],[-7.5704,8.9282],[-7.5826,8.9301],[-7.6119,8.9529],[-7.6749,8.9668],[-7.6812,8.9802],[-7.6802,9.0058],[-7.6863,9.0242],[-7.686,9.0413],[-7.694,9.0542],[-7.7192,9.07]]]},"properties":{"shapeName":"Woroba","shapeISO":"","shapeID":"83157122B58892240487392","shapeGroup":"CIV","shapeType":"ADM1"}},
{"type":"Feature","geometry":{"type":"Polygon","coordinates":[[[-3.5152,7.3537],[-3.5008,7.3544],[-3.4815,7.3434],[-3.4389,7.3376],[-3.4307,7.3075],[-3.4016,7.2909],[-3.3899,7.2663],[-3.378,7.251],[-3.3448,7.2727],[-3.3285,7.2742],[-3.3197,7.2833],[-3.3046,7.2837],[-3.2971,7.2943],[-3.3022,7.3116],[-3.3141,7.3273],[-3.2858,7.332],[-3.2601,7.3281],[-3.2501,7.3214],[-3.247,7.2425],[-3.2374,7.2244],[-3.2231,7.2137],[-3.2231,7.1835],[-3.2037,7.1847],[-3.2042,7.1746],[-3.1863,7.1688],[-3.1568,7.1468],[-3.1341,7.1243],[-3.1155,7.0965],[-3.0799,7.0567],[-3.0351,7.0771],[-3.0257,7.1408],[-2.9558,7.2338],[-2.9786,7.2667],[-2.9764,7.3344],[-2.9659,7.3659],[-2.9594,7.3955],[-2.9511,7.4491],[-2.9337,7.5037],[-2.9351,7.5519],[-2.9267,7.6155],[-2.8531,7.7692],[-2.852,7.7838],[-2.8313,7.8008],[-2.8346,7.8189],[-2.7917,7.8652],[-2.7827,7.952],[-2.7656,7.9459],[-2.7448,7.9197],[-2.7379,7.9391],[-2.7194,7.9703],[-2.6902,7.9968],[-2.6842,8.0151],[-2.6577,8.0248],[-2.6065,8.0266],[-2.5952,8.0574],[-2.6253,8.1048],[-2.6213,8.1326],[-2.6035,8.1547],[-2.5574,8.147],[-2.5468,8.1532],[-2.4941,8.202],[-2.4941,8.2259],[-2.5183,8.3735],[-2.5648,8.6746],[-2.5831,8.7834],[-2.6134,8.781],[-2.6285,8.7911],[-2.6233,8.8055],[-2.5968,8.8213],[-2.5972,8.8293],[-2.6206,8.8703],[-2.6175,8.9168],[-2.652,8.9436],[-2.6594,9.0086],[-2.6741,9.0187],[-2.7203,9.0293],[-2.7552,9.0298],[-2.7678,9.0363],[-2.7819,9.0585],[-2.7628,9.0867],[-2.7669,9.1169],[-2.7754,9.1316],[-2.769,9.1467],[-2.7372,9.1547],[-2.7221,9.1763],[-2.7138,9.2058],[-2.6916,9.2272],[-2.6658,9.2385],[-2.6632,9.2607],[-2.6855,9.2823],[-2.7056,9.2835],[-2.7208,9.2998],[-2.7244,9.3241],[-2.7177,9.3338],[-2.679,9.3636],[-2.6748,9.3792],[-2.6768,9.4016],[-2.6899,9.4332],[-2.6829,9.4851],[-2.6917,9.4813],[-2.745,9.4245],[-2.7581,9.4082],[-2.7883,9.4198],[-2.8364,9.4615],[-2.9355,9.5798],[-2.9457,9.6229],[-2.9668,9.6518],[-2.9967,9.7249],[-3.0098,9.7408],[-3.0372,9.7343],[-3.0565,9.7253],[-3.0886,9.7712],[-3.0886,9.8081],[-3.112,9.8298],[-3.1386,9.8486],[-3.151,9.8501],[-3.1744,9.8338],[-3.182,9.8348],[-3.1887,9.8831],[-3.1861,9.9036],[-3.1877,9.9376],[-3.1969,9.9325],[-3.216,9.9016],[-3.2322,9.8923],[-3.2465,9.8727],[-3.2676,9.8522],[-3.3112,9.8702],[-3.3065,9.906],[-3.3255,9.9046],[-3.3612,9.9074],[-3.3758,9.923],[-3.4079,9.9294],[-3.4284,9.92],[-3.4671,9.9362],[-3.4849,9.9319],[-3.5306,9.9325],[-3.5601,9.9383],[-3.5933,9.9378],[-3.6134,9.9581],[-3.6328,9.9551],[-3.6546,9.9323],[-3.6776,9.9279],[-3.7061,9.9358],[-3.7466,9.9314],[-3.7772,9.9237],[-3.7979,9.8962],[-3.8173,9.9045],[-3.8297,9.8994],[-3.8921,9.9057],[-3.9056,9.8837],[-3.9278,9.8754],[-3.9537,9.8775],[-3.9637,9.8707],[-3.9749,9.8307],[-4.0214,9.8361],[-4.0426,9.8088],[-4.0902,9.8187],[-4.1301,9.8457],[-4.1431,9.8214],[-4.1635,9.813],[-4.1802,9.7833],[-4.1911,9.7738],[-4.2356,9.765],[-4.2672,9.7436],[-4.2597,9.7282],[-4.265,9.7109],[-4.2778,9.6926],[-4.2721,9.6774],[-4.2833,9.6693],[-4.2821,9.6378],[-4.307,9.5948],[-4.2988,9.5899],[-4.2757,9.5569],[-4.2394,9.5335],[-4.2412,9.4954],[-4.2315,9.4779],[-4.1973,9.4572],[-4.1906,9.4481],[-4.1966,9.4149],[-4.1772,9.3994],[-4.1844,9.3844],[-4.1862,9.3643],[-4.2086,9.3463],[-4.1699,9.2847],[-4.1898,9.274],[-4.1968,9.2608],[-4.1669,9.2286],[-4.1453,9.2486],[-4.1242,9.2622],[-4.0683,9.2536],[-4.0647,9.2431],[-4.0476,9.2378],[-4.0264,9.2114],[-4.0154,9.2165],[-4.0007,9.2036],[-3.9572,9.2056],[-3.9433,9.1795],[-3.9326,9.1701],[-3.884,9.1699],[-3.9049,9.1491],[-3.9072,9.127],[-3.9005,9.1085],[-3.8735,9.1075],[-3.8644,9.119],[-3.848,9.121],[-3.8421,9.0916],[-3.8504,9.0768],[-3.8723,9.101],[-3.8856,9.0896],[-3.8854,9.0662],[-3.9004,9.0548],[-3.8842,9.0482],[-3.8733,9.0508],[-3.8497,9.0247],[-3.8164,9.02],[-3.7977,9.0058],[-3.8001,8.9926],[-3.8282,8.9758],[-3.8453,8.9728],[-3.8614,8.953],[-3.8817,8.9601],[-3.9043,8.9511],[-3.8928,8.9258],[-3.8641,8.9154],[-3.8546,8.8835],[-3.8379,8.8765],[-3.8274,8.8616],[-3.8239,8.8327],[-3.8059,8.825],[-3.8108,8.7828],[-3.8629,8.7297],[-3.8726,8.6989],[-3.8977,8.6919],[-3.9144,8.6813],[-3.9271,8.6846],[-3.9414,8.6711],[-3.9432,8.6417],[-3.945,8.6288],[-3.9176,8.6057],[-3.9,8.5764],[-3.9172,8.5691],[-3.9443,8.5483],[-3.9684,8.5449],[-3.9818,8.5362],[-3.9823,8.5144],[-3.9485,8.5053],[-3.9266,8.4922],[-3.9261,8.4789],[-3.9354,8.4672],[-3.9362,8.4504],[-3.97,8.4337],[-3.9963,8.4337],[-4.0064,8.4255],[-3.9967,8.4014],[-3.9831,8.4022],[-3.9586,8.3956],[-3.9645,8.3801],[-3.9876,8.3734],[-3.9918,8.3631],[-3.982,8.3533],[-3.9611,8.3475],[-3.9682,8.3262],[-3.968,8.3098],[-3.9759,8.2982],[-4.033,8.307],[-4.0553,8.3038],[-4.0619,8.2883],[-4.0423,8.2641],[-4.0186,8.2454],[-4.0093,8.2314],[-4.0144,8.2187],[-4.0336,8.1982],[-4.0343,8.1845],[-4.0246,8.1722],[-4.0103,8.1742],[-3.9829,8.1643],[-3.951,8.1231],[-3.9325,8.118],[-3.9384,8.1035],[-3.9686,8.1079],[-3.9957,8.1064],[-4.0066,8.0961],[-4.0049,8.081],[-4.0166,8.0616],[-4.0182,8.048],[-3.9935,8.026],[-3.9752,8.0232],[-3.9794,8.0108],[-3.9931,8.0099],[-4.0213,7.9791],[-4.0157,7.9533],[-4.0061,7.9494],[-3.9884,7.9656],[-3.9516,7.9691],[-3.9285,7.9747],[-3.9251,7.9564],[-3.9477,7.9324],[-3.9479,7.9242],[-3.9669,7.9148],[-3.9912,7.9121],[-3.9984,7.9001],[-3.9649,7.8907],[-3.9418,7.8913],[-3.9197,7.8787],[-3.8849,7.8772],[-3.8669,7.8555],[-3.8649,7.8434],[-3.8793,7.8149],[-3.8589,7.7974],[-3.8771,7.7763],[-3.8725,7.7688],[-3.8434,7.7717],[-3.8289,7.7643],[-3.8347,7.7475],[-3.8286,7.7388],[-3.8015,7.7417],[-3.7592,7.7314],[-3.7357,7.7345],[-3.7303,7.7193],[-3.7368,7.6912],[-3.7342,7.6657],[-3.7098,7.6473],[-3.6852,7.6404],[-3.6835,7.6241],[-3.6671,7.6032],[-3.6615,7.585],[-3.6471,7.5742],[-3.6343,7.5782],[-3.6183,7.5919],[-3.6011,7.5937],[-3.5838,7.5827],[-3.5751,7.5532],[-3.5846,7.5412],[-3.6002,7.5329],[-3.6027,7.5212],[-3.5699,7.4952],[-3.5351,7.4848],[-3.5183,7.4507],[-3.4982,7.4314],[-3.4957,7.4144],[-3.4991,7.3889],[-3.5177,7.367],[-3.5152,7.3537]]]},"properties":{"shapeName":"Zanzan","shapeISO":"","shapeID":"83157122B79983119233374","shapeGroup":"CIV","shapeType":"ADM1"}},
{"type":"Feature","geometry":{"type":"Polygon","coordinates":[[[-5.4859,5.0901],[-5.4153,5.1018],[-5.3818,5.1047],[-5.3263,5.1128],[-5.2664,5.1166],[-5.2424,5.121],[-5.192,5.1216],[-5.1262,5.1277],[-5.1187,5.1262],[-4.9875,5.1349],[-4.9206,5.1371],[-4.8816,5.1435],[-4.8465,5.1428],[-4.8288,5.1476],[-4.7637,5.1498],[-4.6483,5.1706],[-4.5368,5.1851],[-4.4481,5.1932],[-4.4446,5.1967],[-4.4056,5.1972],[-4.3973,5.2004],[-4.3224,5.2084],[-4.3023,5.2085],[-4.2141,5.2188],[-4.2259,5.2795],[-4.2736,5.275],[-4.2959,5.3085],[-4.3063,5.3928],[-4.3168,5.408],[-4.3074,5.4214],[-4.2911,5.4239],[-4.2849,5.4477],[-4.2991,5.4545],[-4.3016,5.4843],[-4.365,5.5119],[-4.3873,5.5265],[-4.4152,5.5234],[-4.4611,5.5336],[-4.3931,5.6018],[-4.3616,5.5807],[-4.2618,5.5941],[-4.2452,5.6002],[-4.206,5.6],[-4.1929,5.5962],[-4.1793,5.6051],[-4.1584,5.5962],[-4.1459,5.5986],[-4.1319,5.5858],[-4.1025,5.576],[-4.0715,5.5745],[-4.0382,5.5879],[-4.0323,5.5825],[-3.99,5.584],[-3.9401,5.5891],[-3.927,5.5702],[-3.8982,5.5458],[-3.8792,5.5201],[-3.8737,5.5003],[-3.8564,5.5085],[-3.8471,5.5016],[-3.8296,5.4646],[-3.835,5.4491],[-3.8259,5.4305],[-3.8162,5.426],[-3.8276,5.4003],[-3.8298,5.3741],[-3.8076,5.3813],[-3.787,5.3679],[-3.7792,5.3744],[-3.7647,5.3683],[-3.7607,5.352],[-3.7683,5.3386],[-3.7464,5.3296],[-3.7458,5.3128],[-3.7163,5.2974],[-3.7273,5.2686],[-3.7272,5.2505],[-3.7141,5.2332],[-3.7035,5.2366],[-3.689,5.2304],[-3.6767,5.2391],[-3.6706,5.256],[-3.6512,5.26],[-3.6389,5.2516],[-3.6254,5.2562],[-3.6157,5.2679],[-3.6254,5.2966],[-3.6139,5.3045],[-3.607,5.3282],[-3.589,5.3427],[-3.5932,5.3496],[-3.5853,5.3712],[-3.5878,5.3878],[-3.5817,5.405],[-3.5831,5.4237],[-3.5751,5.4559],[-3.578,5.474],[-3.5756,5.5296],[-3.5728,5.5411],[-3.5242,5.5451],[-3.4846,5.5707],[-3.4925,5.5861],[-3.4651,5.5848],[-3.4508,5.5986],[-3.4248,5.6008],[-3.4161,5.6304],[-3.3969,5.6364],[-3.378,5.6507],[-3.3381,5.653],[-3.3222,5.6592],[-3.2993,5.7249],[-3.3709,5.7339],[-3.4261,5.7492],[-3.4383,5.7602],[-3.437,5.7739],[-3.4274,5.7804],[-3.4324,5.8032],[-3.402,5.7959],[-3.3965,5.8134],[-3.3961,5.849],[-3.3858,5.8692],[-3.3756,5.874],[-3.3545,5.8669],[-3.323,5.8881],[-3.321,5.9046],[-3.366,5.8928],[-3.395,5.8907],[-3.4201,5.8953],[-3.4557,5.9097],[-3.447,5.9326],[-3.4365,5.9421],[-3.443,5.9649],[-3.434,5.9724],[-3.4118,5.9759],[-3.3968,6.0164],[-3.4101,6.0402],[-3.4214,6.0492],[-3.4166,6.067],[-3.4311,6.0702],[-3.4261,6.0872],[-3.4037,6.0923],[-3.4023,6.1018],[-3.4147,6.1137],[-3.4174,6.1293],[-3.402,6.146],[-3.4148,6.1599],[-3.4235,6.186],[-3.432,6.1976],[-3.4524,6.1954],[-3.4463,6.1831],[-3.4635,6.1751],[-3.4642,6.1951],[-3.4871,6.2181],[-3.487,6.2356],[-3.4721,6.2457],[-3.4575,6.2367],[-3.4521,6.2493],[-3.4736,6.2622],[-3.4777,6.2962],[-3.509,6.3278],[-3.5052,6.3473],[-3.5181,6.3547],[-3.5119,6.3788],[-3.5322,6.3975],[-3.5459,6.3958],[-3.5493,6.3781],[-3.5788,6.3992],[-3.5946,6.3914],[-3.611,6.4145],[-3.6128,6.4392],[-3.6274,6.4509],[-3.6366,6.4407],[-3.6508,6.4446],[-3.6537,6.4614],[-3.6422,6.4825],[-3.6563,6.5339],[-3.667,6.5397],[-3.6648,6.5693],[-3.6937,6.586],[-3.6959,6.6074],[-3.6845,6.6217],[-3.6868,6.641],[-3.7045,6.643],[-3.7303,6.624],[-3.7436,6.6297],[-3.7616,6.6289],[-3.772,6.616],[-3.8002,6.5837],[-3.821,6.5765],[-3.8467,6.535],[-3.8811,6.534],[-3.8988,6.5513],[-3.9429,6.5402],[-3.9569,6.5398],[-3.9732,6.5565],[-3.9849,6.5535],[-4.0252,6.5216],[-4.0605,6.5041],[-4.0797,6.4815],[-4.0918,6.493],[-4.1386,6.4719],[-4.1624,6.3354],[-4.1154,6.2612],[-4.1607,6.2306],[-4.2367,6.1864],[-4.2455,6.1972],[-4.2553,6.2286],[-4.262,6.2345],[-4.2772,6.2646],[-4.3029,6.2682],[-4.3576,6.2618],[-4.4164,6.2645],[-4.4335,6.2537],[-4.4576,6.2519],[-4.4678,6.2676],[-4.4808,6.2648],[-4.4997,6.2421],[-4.6845,6.2718],[-4.7054,6.2787],[-4.7196,6.2585],[-4.7322,6.2493],[-4.7822,6.2395],[-4.8064,6.2419],[-4.8179,6.2517],[-4.824,6.2358],[-4.9317,6.2609],[-4.9576,6.257],[-4.9987,6.2382],[-5.0367,6.2357],[-5.0437,6.264],[-5.0263,6.28],[-5.0376,6.2964],[-5.0743,6.2859],[-5.0909,6.285],[-5.1162,6.3082],[-5.1265,6.3124],[-5.141,6.3312],[-5.1812,6.3683],[-5.2035,6.3708],[-5.2408,6.2421],[-5.1426,6.155],[-5.0183,6.1311],[-4.9913,6.0886],[-5.0032,6.0641],[-5.0373,6.0362],[-5.018,6.0077],[-4.9987,6.001],[-4.9987,5.9463],[-4.9963,5.944],[-4.9939,5.8902],[-4.9714,5.8784],[-4.9562,5.8649],[-4.9364,5.8563],[-4.9401,5.8296],[-4.9562,5.8081],[-4.9613,5.7807],[-4.9752,5.7623],[-4.9702,5.7518],[-4.9735,5.7338],[-4.9577,5.7002],[-4.9396,5.6804],[-4.9531,5.6663],[-4.961,5.6464],[-4.9945,5.6359],[-5.0151,5.5951],[-5.023,5.5921],[-5.0347,5.573],[-5.021,5.5619],[-5.0091,5.5091],[-5.0227,5.4625],[-5.0328,5.4368],[-5.044,5.4225],[-5.0461,5.3985],[-5.0549,5.3887],[-5.0622,5.3623],[-5.0561,5.3325],[-5.0683,5.324],[-5.0635,5.3097],[-5.0295,5.2724],[-5.0552,5.2379],[-5.0676,5.2345],[-5.0677,5.1927],[-5.1074,5.1731],[-5.1355,5.1934],[-5.1282,5.213],[-5.1269,5.237],[-5.1883,5.2328],[-5.1928,5.2077],[-5.2329,5.1779],[-5.2828,5.1764],[-5.3079,5.1596],[-5.37,5.2173],[-5.4056,5.2213],[-5.3982,5.2573],[-5.4222,5.271],[-5.4327,5.2661],[-5.4588,5.2617],[-5.4632,5.2551],[-5.4567,5.2338],[-5.4618,5.1967],[-5.4751,5.1827],[-5.4943,5.1805],[-5.4982,5.1728],[-5.5068,5.1142],[-5.4859,5.0901]]]},"properties":{"shapeName":"Lagunes","shapeISO":"","shapeID":"83157122B73612976130091","shapeGroup":"CIV","shapeType":"ADM1"}},
{"type":"Feature","geometry":{"type":"Polygon","coordinates":[[[-3.8514,5.2215],[-3.8158,5.2081],[-3.7582,5.196],[-3.6336,5.172],[-3.5666,5.1606],[-3.5437,5.1614],[-3.4853,5.1564],[-3.3548,5.1308],[-3.3351,5.1296],[-3.2795,5.1154],[-3.2586,5.1146],[-3.1632,5.0941],[-3.1135,5.0851],[-3.1195,5.1095],[-3.1072,5.1146],[-3.0769,5.1066],[-3.0238,5.1117],[-3.0076,5.1059],[-2.9798,5.0802],[-2.9491,5.0748],[-2.943,5.0849],[-2.9289,5.0875],[-2.8975,5.0806],[-2.8867,5.095],[-2.891,5.1095],[-2.8816,5.1207],[-2.86,5.1139],[-2.8437,5.1016],[-2.8336,5.1146],[-2.8174,5.1023],[-2.7921,5.0994],[-2.7763,5.1059],[-2.7582,5.0936],[-2.725,5.1305],[-2.7419,5.1558],[-2.7412,5.1674],[-2.7513,5.1953],[-2.7636,5.2032],[-2.7574,5.2152],[-2.761,5.2311],[-2.7571,5.2459],[-2.7758,5.2535],[-2.7711,5.2637],[-2.7942,5.2825],[-2.7675,5.2941],[-2.7668,5.3085],[-2.7758,5.3331],[-2.7646,5.3483],[-2.7538,5.3378],[-2.7264,5.3353],[-2.7332,5.3512],[-2.7274,5.387],[-2.7624,5.4457],[-2.7667,5.5814],[-2.7652,5.5951],[-2.7768,5.5977],[-2.7945,5.6154],[-2.8219,5.6194],[-2.862,5.6419],[-2.8696,5.6592],[-2.883,5.6477],[-2.9007,5.6401],[-2.9061,5.6241],[-2.9169,5.6231],[-2.9386,5.6104],[-2.9545,5.6118],[-2.9704,5.6303],[-2.9556,5.7095],[-3.0361,5.7143],[-3.0231,5.8482],[-3.0828,5.9987],[-3.111,6.1561],[-3.1569,6.2437],[-3.1761,6.2468],[-3.1732,6.2936],[-3.2058,6.3975],[-3.242,6.5415],[-3.2385,6.5976],[-3.2576,6.6073],[-3.2587,6.6279],[-3.2522,6.6478],[-3.2341,6.6648],[-3.228,6.6955],[-3.22,6.7031],[-3.2085,6.7285],[-3.2161,6.7422],[-3.2096,6.7506],[-3.2335,6.7713],[-3.2346,6.8205],[-3.0956,7.0485],[-3.0799,7.0567],[-3.1155,7.0965],[-3.1341,7.1243],[-3.1568,7.1468],[-3.1863,7.1688],[-3.2042,7.1746],[-3.2037,7.1847],[-3.2231,7.1835],[-3.2231,7.2137],[-3.2374,7.2244],[-3.247,7.2425],[-3.2501,7.3214],[-3.2601,7.3281],[-3.2858,7.332],[-3.3141,7.3273],[-3.3022,7.3116],[-3.2971,7.2943],[-3.3046,7.2837],[-3.3197,7.2833],[-3.3285,7.2742],[-3.3448,7.2727],[-3.378,7.251],[-3.3899,7.2663],[-3.4016,7.2909],[-3.4307,7.3075],[-3.4389,7.3376],[-3.4815,7.3434],[-3.5008,7.3544],[-3.5152,7.3537],[-3.5371,7.3459],[-3.5634,7.3144],[-3.5588,7.3026],[-3.5426,7.2936],[-3.5505,7.2773],[-3.5838,7.2831],[-3.5967,7.2736],[-3.5956,7.2551],[-3.5791,7.2287],[-3.5934,7.1893],[-3.6122,7.1798],[-3.617,7.1919],[-3.646,7.2019],[-3.6541,7.173],[-3.646,7.1452],[-3.6461,7.1289],[-3.6145,7.1078],[-3.5772,7.0965],[-3.5914,7.0748],[-3.6225,7.091],[-3.6306,7.0804],[-3.6221,7.0686],[-3.6386,7.0473],[-3.6629,7.0532],[-3.679,7.0502],[-3.6899,7.039],[-3.7195,7.0202],[-3.7213,7.0047],[-3.7376,7.0078],[-3.7592,7.001],[-3.7718,6.9906],[-3.7867,6.9625],[-3.7854,6.9387],[-3.7732,6.9266],[-3.7531,6.9563],[-3.7365,6.923],[-3.7421,6.9079],[-3.7682,6.8807],[-3.7822,6.8564],[-3.7726,6.8406],[-3.7548,6.8278],[-3.7496,6.8166],[-3.7644,6.799],[-3.7634,6.7733],[-3.7771,6.774],[-3.7961,6.7666],[-3.8013,6.7575],[-3.7918,6.7322],[-3.7812,6.7252],[-3.7689,6.7014],[-3.7865,6.6836],[-3.8019,6.6743],[-3.7762,6.6437],[-3.7796,6.629],[-3.772,6.616],[-3.7616,6.6289],[-3.7436,6.6297],[-3.7303,6.624],[-3.7045,6.643],[-3.6868,6.641],[-3.6845,6.6217],[-3.6959,6.6074],[-3.6937,6.586],[-3.6648,6.5693],[-3.667,6.5397],[-3.6563,6.5339],[-3.6422,6.4825],[-3.6537,6.4614],[-3.6508,6.4446],[-3.6366,6.4407],[-3.6274,6.4509],[-3.6128,6.4392],[-3.611,6.4145],[-3.5946,6.3914],[-3.5788,6.3992],[-3.5493,6.3781],[-3.5459,6.3958],[-3.5322,6.3975],[-3.5119,6.3788],[-3.5181,6.3547],[-3.5052,6.3473],[-3.509,6.3278],[-3.4777,6.2962],[-3.4736,6.2622],[-3.4521,6.2493],[-3.4575,6.2367],[-3.4721,6.2457],[-3.487,6.2356],[-3.4871,6.2181],[-3.4642,6.1951],[-3.4635,6.1751],[-3.4463,6.1831],[-3.4524,6.1954],[-3.432,6.1976],[-3.4235,6.186],[-3.4148,6.1599],[-3.402,6.146],[-3.4174,6.1293],[-3.4147,6.1137],[-3.4023,6.1018],[-3.4037,6.0923],[-3.4261,6.0872],[-3.4311,6.0702],[-3.4166,6.067],[-3.4214,6.0492],[-3.4101,6.0402],[-3.3968,6.0164],[-3.4118,5.9759],[-3.434,5.9724],[-3.443,5.9649],[-3.4365,5.9421],[-3.447,5.9326],[-3.4557,5.9097],[-3.4201,5.8953],[-3.395,5.8907],[-3.366,5.8928],[-3.321,5.9046],[-3.323,5.8881],[-3.3545,5.8669],[-3.3756,5.874],[-3.3858,5.8692],[-3.3961,5.849],[-3.3965,5.8134],[-3.402,5.7959],[-3.4324,5.8032],[-3.4274,5.7804],[-3.437,5.7739],[-3.4383,5.7602],[-3.4261,5.7492],[-3.3709,5.7339],[-3.2993,5.7249],[-3.3222,5.6592],[-3.3381,5.653],[-3.378,5.6507],[-3.3969,5.6364],[-3.4161,5.6304],[-3.4248,5.6008],[-3.4508,5.5986],[-3.4651,5.5848],[-3.4925,5.5861],[-3.4846,5.5707],[-3.5242,5.5451],[-3.5728,5.5411],[-3.5756,5.5296],[-3.578,5.474],[-3.5751,5.4559],[-3.5831,5.4237],[-3.5817,5.405],[-3.5878,5.3878],[-3.5853,5.3712],[-3.5932,5.3496],[-3.589,5.3427],[-3.607,5.3282],[-3.6139,5.3045],[-3.6254,5.2966],[-3.6157,5.2679],[-3.6254,5.2562],[-3.6389,5.2516],[-3.6512,5.26],[-3.6706,5.256],[-3.6767,5.2391],[-3.689,5.2304],[-3.7035,5.2366],[-3.7141,5.2332],[-3.7272,5.2505],[-3.7273,5.2686],[-3.7163,5.2974],[-3.7851,5.2715],[-3.8049,5.2853],[-3.8173,5.2717],[-3.818,5.2505],[-3.84,5.2535],[-3.8514,5.2215]]]},"properties":{"shapeName":"Comoe","shapeISO":"","shapeID":"83157122B96325295181308","shapeGroup":"CIV","shapeType":"ADM1"}}
]}